{"type":"FeatureCollection","features":[{"type":"Feature","properties":{"code":"0001","name":"Port Reitz","constituency":"Changamwe"},"geometry":{"type":"MultiPolygon","coordinates":[[[[39.61912,-4.02442],[39.61922,-4.03353],[39.61869,-4.03954],[39.61845,-4.04119],[39.61749,-4.04071],[39.61609,-4.04028],[39.61511,-4.0401],[39.61432,-4.0401],[39.61091,-4.04071],[39.6103,-4.04102],[39.60773,-4.04181],[39.60633,-4.04181],[39.60529,-4.04199],[39.6045,-4.04199],[39.60409,-4.04185],[39.60413,-4.04125],[39.60512,-4.04101],[39.60526,-4.03971],[39.60545,-4.03964],[39.60514,-4.03838],[39.60477,-4.03841],[39.60406,-4.03708],[39.6041,-4.03534],[39.60349,-4.03537],[39.60349,-4.03484],[39.60366,-4.0346],[39.60371,-4.03131],[39.60432,-4.03088],[39.60468,-4.0304],[39.60618,-4.0309],[39.60858,-4.03079],[39.61093,-4.03023],[39.61426,-4.02897],[39.61615,-4.02845],[39.61617,-4.02619],[39.61158,-4.02636],[39.61145,-4.02617],[39.61128,-4.0244],[39.61101,-4.02392],[39.61122,-4.02258],[39.61469,-4.02222],[39.6167,-4.02118],[39.61913,-4.02051],[39.61912,-4.02442]]]]}},{"type":"Feature","properties":{"code":"0002","name":"Kipevu","constituency":"Changamwe"},"geometry":{"type":"MultiPolygon","coordinates":[[[[39.62201,-4.03007],[39.62203,-4.03212],[39.62101,-4.0319],[39.62079,-4.03014],[39.62058,-4.03136],[39.61991,-4.03198],[39.61991,-4.03328],[39.6196,-4.03376],[39.6192,-4.03371],[39.61913,-4.01904],[39.62665,-4.02413],[39.62372,-4.02681],[39.62255,-4.02767],[39.62203,-4.02784],[39.62224,-4.0291],[39.62167,-4.02952],[39.62201,-4.03007]]]]}},{"type":"Feature","properties":{"code":"0003","name":"Airport","constituency":"Changamwe"},"geometry":{"type":"MultiPolygon","coordinates":[[[[39.61062,-4.01355],[39.61915,-4.01906],[39.61915,-4.02051],[39.61672,-4.02119],[39.6147,-4.02223],[39.61124,-4.0226],[39.61103,-4.02393],[39.6113,-4.02441],[39.61147,-4.02618],[39.6116,-4.02637],[39.61619,-4.0262],[39.61617,-4.02846],[39.61427,-4.02899],[39.61095,-4.03024],[39.60868,-4.03083],[39.60617,-4.03093],[39.60469,-4.03041],[39.60433,-4.0309],[39.60372,-4.03132],[39.60366,-4.03461],[39.6035,-4.03485],[39.6035,-4.03539],[39.60411,-4.03536],[39.60406,-4.0371],[39.60477,-4.03843],[39.60514,-4.0384],[39.60545,-4.03967],[39.60526,-4.03974],[39.60511,-4.04104],[39.60413,-4.04128],[39.60409,-4.04188],[39.60382,-4.04178],[39.60339,-4.0422],[39.60274,-4.04231],[39.59993,-4.04182],[39.59169,-4.04182],[39.58852,-4.04292],[39.5873,-4.04353],[39.58553,-4.04353],[39.58449,-4.04304],[39.5837,-4.04243],[39.58352,-4.04054],[39.58413,-4.03914],[39.58492,-4.03804],[39.58535,-4.03682],[39.58553,-4.03492],[39.5859,-4.03352],[39.58614,-4.03303],[39.58614,-4.03242],[39.58632,-4.03169],[39.58631,-4.02999],[39.5924,-4.02619],[39.59306,-4.02681],[39.59354,-4.02705],[39.59473,-4.02654],[39.5951,-4.02612],[39.59557,-4.02512],[39.59563,-4.02422],[39.59603,-4.02311],[39.59786,-4.02152],[39.59823,-4.02102],[39.59908,-4.01603],[39.59978,-4.01414],[39.60177,-4.01496],[39.60208,-4.00866],[39.60621,-4.01033],[39.60884,-4.01237],[39.61061,-4.01355],[39.61062,-4.01355]]]]}},{"type":"Feature","properties":{"code":"0004","name":"Changamwe","constituency":"Changamwe"},"geometry":{"type":"MultiPolygon","coordinates":[[[[39.60585,-4.00638],[39.61492,-4.00609],[39.61739,-4.00613],[39.62037,-4.00668],[39.62622,-4.00799],[39.62902,-4.00922],[39.63032,-4.01015],[39.63229,-4.01234],[39.63296,-4.01342],[39.63319,-4.01417],[39.63351,-4.0207],[39.63325,-4.02235],[39.63215,-4.02628],[39.63221,-4.02759],[39.63177,-4.02764],[39.63125,-4.02739],[39.62629,-4.02388],[39.61821,-4.01842],[39.60882,-4.01236],[39.60619,-4.01031],[39.60206,-4.00865],[39.59978,-4.00759],[39.5998,-4.00521],[39.60261,-4.00515],[39.60566,-4.00632],[39.60585,-4.00638]]]]}},{"type":"Feature","properties":{"code":"0005","name":"Chaani","constituency":"Changamwe"},"geometry":{"type":"MultiPolygon","coordinates":[[[[39.63125,-4.02739],[39.63177,-4.02764],[39.63221,-4.02759],[39.63533,-4.02806],[39.64024,-4.02818],[39.64213,-4.02882],[39.64363,-4.02889],[39.64588,-4.02986],[39.64867,-4.03011],[39.64947,-4.03045],[39.65067,-4.0312],[39.64874,-4.03396],[39.64791,-4.03489],[39.64728,-4.03529],[39.64551,-4.03525],[39.64328,-4.03425],[39.64217,-4.034],[39.64037,-4.03386],[39.63992,-4.03403],[39.63959,-4.03438],[39.63936,-4.03506],[39.63947,-4.037],[39.63978,-4.03806],[39.63928,-4.03821],[39.63928,-4.03882],[39.63892,-4.03992],[39.63733,-4.04059],[39.63489,-4.04071],[39.63428,-4.04089],[39.6319,-4.04089],[39.63129,-4.04102],[39.63092,-4.04059],[39.63013,-4.04059],[39.62909,-4.04163],[39.62848,-4.04199],[39.62732,-4.04309],[39.62567,-4.04388],[39.62512,-4.04401],[39.62451,-4.04388],[39.62433,-4.0434],[39.62372,-4.04321],[39.62311,-4.0434],[39.62231,-4.04321],[39.62152,-4.04321],[39.62091,-4.04358],[39.6203,-4.04321],[39.62048,-4.0423],[39.61969,-4.04169],[39.61845,-4.04119],[39.61869,-4.03954],[39.6192,-4.03371],[39.6196,-4.03376],[39.61991,-4.03328],[39.61991,-4.03198],[39.62058,-4.03136],[39.62079,-4.03014],[39.62101,-4.0319],[39.62203,-4.03212],[39.62201,-4.03007],[39.62167,-4.02952],[39.62224,-4.0291],[39.62203,-4.02784],[39.62255,-4.02767],[39.62372,-4.02681],[39.62665,-4.02413],[39.63125,-4.02739]]]]}},{"type":"Feature","properties":{"code":"0006","name":"Jomvu Kuu","constituency":"Jomvu"},"geometry":{"type":"MultiPolygon","coordinates":[[[[39.60321,-3.95372],[39.60423,-3.95357],[39.60469,-3.95418],[39.60506,-3.95445],[39.60817,-3.95591],[39.60879,-3.95657],[39.60866,-3.95758],[39.60706,-3.9592],[39.60583,-3.96105],[39.60408,-3.96324],[39.60379,-3.96394],[39.60407,-3.96473],[39.60463,-3.96519],[39.60518,-3.96533],[39.60583,-3.96519],[39.60714,-3.96519],[39.60937,-3.96589],[39.61285,-3.96761],[39.61364,-3.96835],[39.6142,-3.96914],[39.61438,-3.96984],[39.61434,-3.97249],[39.61318,-3.97788],[39.6122,-3.97955],[39.61201,-3.9803],[39.61234,-3.98127],[39.6128,-3.98216],[39.61346,-3.98267],[39.6181,-3.98481],[39.62196,-3.98699],[39.62396,-3.98787],[39.62526,-3.9882],[39.6264,-3.98824],[39.62543,-3.99045],[39.62488,-3.99207],[39.62486,-3.99369],[39.62459,-3.99466],[39.62324,-3.99624],[39.62149,-3.99751],[39.6193,-3.99807],[39.61553,-3.99839],[39.61391,-3.99881],[39.61355,-3.99919],[39.61317,-3.99999],[39.6126,-4.00046],[39.61155,-4.0009],[39.60883,-4.00165],[39.60775,-4.0021],[39.60714,-4.00267],[39.60678,-4.00357],[39.60701,-4.00467],[39.60685,-4.0064],[39.60559,-4.00631],[39.60251,-4.00515],[39.59752,-4.0053],[39.59457,-4.00564],[39.59245,-4.00608],[39.58785,-4.00672],[39.58445,-4.00668],[39.58348,-4.00653],[39.58241,-4.00598],[39.57961,-4.00418],[39.57796,-4.00328],[39.57481,-4.00097],[39.57449,-4.0006],[39.57428,-3.99988],[39.57463,-3.9971],[39.57393,-3.99534],[39.57126,-3.99203],[39.57069,-3.99165],[39.56992,-3.99135],[39.57557,-3.98415],[39.57411,-3.98399],[39.57392,-3.98361],[39.57391,-3.98268],[39.57361,-3.98222],[39.57314,-3.98215],[39.5725,-3.98234],[39.56894,-3.97951],[39.5689,-3.97917],[39.56921,-3.97745],[39.56926,-3.97501],[39.57154,-3.97414],[39.57271,-3.97298],[39.57372,-3.97298],[39.57726,-3.97191],[39.58226,-3.97001],[39.5829,-3.96994],[39.5833,-3.96973],[39.58374,-3.96545],[39.59438,-3.95488],[39.59678,-3.95284],[39.59712,-3.95127],[39.59738,-3.95093],[39.59852,-3.9502],[39.59983,-3.94951],[39.60036,-3.9498],[39.60054,-3.94995],[39.60088,-3.95108],[39.60206,-3.95232],[39.60281,-3.95358],[39.6031,-3.95371],[39.60321,-3.95372]]]]}},{"type":"Feature","properties":{"code":"0007","name":"Miritini","constituency":"Jomvu"},"geometry":{"type":"MultiPolygon","coordinates":[[[[39.58609,-4.00676],[39.58883,-4.00662],[39.59457,-4.00564],[39.59751,-4.0053],[39.5998,-4.00521],[39.59978,-4.00759],[39.60206,-4.00865],[39.60175,-4.01494],[39.59976,-4.01413],[39.59906,-4.01602],[39.59821,-4.02101],[39.59784,-4.02151],[39.59601,-4.0231],[39.59561,-4.02421],[39.59555,-4.02511],[39.59508,-4.02611],[39.59471,-4.02652],[39.59352,-4.02704],[39.59304,-4.02679],[39.59238,-4.02618],[39.58621,-4.03003],[39.58621,-4.0293],[39.58609,-4.02899],[39.58569,-4.02841],[39.58475,-4.02774],[39.58443,-4.02666],[39.58353,-4.02572],[39.58191,-4.02546],[39.58074,-4.0248],[39.58005,-4.02458],[39.57918,-4.02451],[39.5769,-4.02471],[39.57499,-4.02395],[39.57396,-4.02375],[39.57302,-4.02316],[39.57144,-4.0214],[39.57058,-4.02069],[39.56995,-4.02038],[39.56846,-4.02019],[39.56802,-4.01996],[39.56678,-4.01821],[39.56668,-4.01771],[39.5667,-4.01607],[39.56646,-4.01526],[39.56588,-4.01429],[39.56461,-4.01341],[39.56418,-4.01253],[39.56436,-4.01211],[39.56449,-4.01115],[39.56487,-4.01079],[39.56589,-4.01025],[39.56692,-4.00914],[39.56783,-4.00738],[39.56804,-4.00575],[39.56844,-4.00444],[39.56856,-4.00335],[39.56856,-4.00278],[39.56827,-4.00173],[39.56821,-4.00041],[39.56861,-3.9974],[39.56951,-3.99203],[39.56992,-3.99135],[39.57069,-3.99165],[39.57126,-3.99203],[39.57393,-3.99534],[39.57463,-3.9971],[39.57429,-3.99988],[39.57433,-4.00027],[39.57481,-4.00097],[39.57796,-4.00328],[39.58271,-4.00615],[39.58348,-4.00653],[39.58551,-4.00675],[39.58609,-4.00676]]]]}},{"type":"Feature","properties":{"code":"0008","name":"Mikindani","constituency":"Jomvu"},"geometry":{"type":"MultiPolygon","coordinates":[[[[39.64687,-4.00596],[39.64709,-4.00623],[39.64832,-4.0069],[39.65149,-4.00928],[39.6521,-4.00983],[39.65228,-4.01031],[39.65271,-4.0108],[39.65271,-4.01501],[39.65289,-4.01562],[39.65289,-4.01642],[39.6543,-4.02032],[39.65527,-4.0224],[39.65668,-4.0246],[39.65588,-4.0249],[39.65472,-4.02643],[39.65369,-4.02728],[39.6535,-4.02789],[39.6507,-4.03101],[39.64893,-4.03009],[39.64587,-4.02979],[39.64368,-4.02881],[39.64227,-4.02881],[39.64111,-4.02838],[39.63953,-4.02808],[39.63507,-4.02802],[39.63232,-4.0274],[39.63208,-4.02679],[39.63208,-4.02643],[39.63287,-4.02429],[39.63348,-4.02142],[39.6333,-4.0141],[39.63287,-4.013],[39.63171,-4.0116],[39.63031,-4.01001],[39.62909,-4.00922],[39.6275,-4.00842],[39.62567,-4.00781],[39.62268,-4.0072],[39.62048,-4.00659],[39.61768,-4.0061],[39.61292,-4.0061],[39.60687,-4.00641],[39.60712,-4.00531],[39.60712,-4.00482],[39.60687,-4.00439],[39.60687,-4.00342],[39.60712,-4.00281],[39.60773,-4.00208],[39.60828,-4.00177],[39.61047,-4.00122],[39.61267,-4.00049],[39.61328,-4.00012],[39.61328,-3.99969],[39.61389,-3.99878],[39.61609,-3.99829],[39.6181,-3.99823],[39.62012,-3.99792],[39.62152,-3.9975],[39.62292,-3.9967],[39.62433,-3.99518],[39.62488,-3.99438],[39.62488,-3.99249],[39.62653,-3.98822],[39.62952,-3.98779],[39.63489,-3.98743],[39.63831,-3.98761],[39.64111,-3.9881],[39.64172,-3.9884],[39.64227,-3.98889],[39.64349,-3.99139],[39.64349,-3.9931],[39.64368,-3.9942],[39.64368,-3.99701],[39.64429,-3.99951],[39.64508,-4.00153],[39.64587,-4.00458],[39.64678,-4.00586],[39.64687,-4.00596]]]]}},{"type":"Feature","properties":{"code":"0009","name":"Mjambere","constituency":"Kisauni"},"geometry":{"type":"MultiPolygon","coordinates":[[[[39.68187,-4.01885],[39.68236,-4.01862],[39.68259,-4.01866],[39.68277,-4.01919],[39.68296,-4.01926],[39.68307,-4.01956],[39.6837,-4.01985],[39.68512,-4.02016],[39.6855,-4.02049],[39.68735,-4.02092],[39.68556,-4.02471],[39.68266,-4.02908],[39.68266,-4.0303],[39.68255,-4.03075],[39.68163,-4.0326],[39.68148,-4.03324],[39.68156,-4.03443],[39.68102,-4.0349],[39.67899,-4.03745],[39.6778,-4.03846],[39.67539,-4.03968],[39.67347,-4.04016],[39.67367,-4.04011],[39.67378,-4.03951],[39.6751,-4.0392],[39.67671,-4.03856],[39.67801,-4.03686],[39.67892,-4.03616],[39.67856,-4.03525],[39.67839,-4.03345],[39.67856,-4.03009],[39.67655,-4.02834],[39.67636,-4.02561],[39.67648,-4.02388],[39.67669,-4.02298],[39.67706,-4.02255],[39.67887,-4.02185],[39.6794,-4.02145],[39.68129,-4.01839],[39.68187,-4.01885]]]]}},{"type":"Feature","properties":{"code":"0010","name":"Junda","constituency":"Kisauni"},"geometry":{"type":"MultiPolygon","coordinates":[[[[39.68252,-3.9893],[39.6825,-3.98974],[39.68192,-3.99081],[39.68146,-3.99204],[39.68149,-3.99332],[39.68253,-3.99582],[39.68478,-3.99946],[39.68483,-4.00277],[39.68288,-4.01005],[39.68314,-4.01283],[39.68343,-4.01407],[39.68334,-4.01486],[39.683,-4.01562],[39.6794,-4.02145],[39.67887,-4.02185],[39.67706,-4.02255],[39.67682,-4.02277],[39.67659,-4.02325],[39.67636,-4.02502],[39.67648,-4.02806],[39.67667,-4.02855],[39.67836,-4.02982],[39.67856,-4.03009],[39.67839,-4.03345],[39.67856,-4.03525],[39.67892,-4.03616],[39.67801,-4.03686],[39.67735,-4.0376],[39.67693,-4.03837],[39.6758,-4.03897],[39.67378,-4.03951],[39.67367,-4.04011],[39.67138,-4.04058],[39.67136,-4.04047],[39.67134,-4.04019],[39.67203,-4.03996],[39.67544,-4.03809],[39.67605,-4.03758],[39.67663,-4.03629],[39.67692,-4.036],[39.6767,-4.03553],[39.67666,-4.03503],[39.67695,-4.03467],[39.67663,-4.03309],[39.67677,-4.03248],[39.6767,-4.03186],[39.67577,-4.02949],[39.67526,-4.02906],[39.67472,-4.02906],[39.67404,-4.02874],[39.67325,-4.02892],[39.67228,-4.02938],[39.67185,-4.03039],[39.67134,-4.03035],[39.67109,-4.02974],[39.67102,-4.02888],[39.6712,-4.0269],[39.67106,-4.02622],[39.67073,-4.02546],[39.66994,-4.02428],[39.66983,-4.02323],[39.67019,-4.02273],[39.67113,-4.02237],[39.674,-4.02183],[39.67469,-4.0214],[39.67483,-4.0209],[39.67458,-4.01784],[39.67433,-4.01752],[39.6739,-4.01752],[39.67343,-4.01762],[39.67314,-4.01809],[39.67303,-4.01849],[39.67336,-4.0191],[39.6735,-4.01975],[39.67339,-4.02025],[39.6731,-4.02057],[39.67264,-4.02072],[39.67026,-4.02021],[39.66911,-4.02036],[39.66814,-4.0209],[39.66714,-4.02183],[39.66634,-4.02219],[39.66559,-4.02223],[39.66458,-4.02205],[39.6635,-4.02169],[39.66163,-4.02057],[39.66127,-4.01967],[39.66106,-4.01644],[39.66088,-4.01561],[39.66059,-4.01486],[39.65998,-4.01432],[39.65962,-4.01363],[39.65962,-4.0127],[39.65994,-4.01194],[39.66045,-4.0113],[39.66117,-4.01108],[39.66239,-4.01137],[39.6643,-4.01148],[39.66555,-4.0109],[39.66764,-4.00946],[39.66947,-4.00802],[39.67037,-4.00691],[39.67106,-4.00587],[39.67149,-4.00468],[39.67131,-4.00339],[39.67012,-4.00123],[39.66926,-4.00022],[39.66674,-3.99853],[39.66609,-3.99763],[39.66588,-3.99673],[39.66624,-3.99508],[39.66577,-3.99468],[39.66494,-3.9949],[39.66451,-3.99429],[39.66433,-3.99378],[39.66426,-3.99249],[39.66519,-3.99109],[39.66573,-3.99084],[39.66638,-3.99073],[39.66796,-3.99087],[39.66865,-3.99062],[39.66908,-3.99008],[39.66904,-3.9894],[39.66872,-3.98897],[39.66753,-3.98796],[39.67195,-3.98775],[39.6732,-3.98781],[39.67468,-3.98834],[39.67585,-3.9892],[39.67644,-3.98945],[39.67802,-3.98775],[39.68042,-3.98457],[39.68153,-3.98351],[39.68249,-3.98881],[39.68252,-3.9893]]]]}},{"type":"Feature","properties":{"code":"0011","name":"Bamburi","constituency":"Kisauni"},"geometry":{"type":"MultiPolygon","coordinates":[[[[39.71216,-3.94891],[39.71281,-3.94952],[39.71448,-3.95048],[39.71671,-3.95114],[39.72388,-3.95245],[39.72633,-3.95254],[39.73023,-3.95241],[39.73102,-3.95223],[39.73154,-3.95193],[39.73338,-3.94961],[39.73443,-3.94865],[39.73478,-3.94843],[39.73522,-3.94838],[39.73579,-3.94843],[39.73613,-3.94869],[39.73524,-3.9498],[39.73455,-3.95328],[39.73063,-3.95482],[39.72915,-3.95641],[39.72831,-3.95873],[39.72371,-3.96242],[39.72058,-3.96567],[39.72024,-3.96627],[39.72034,-3.96887],[39.7191,-3.97096],[39.71884,-3.97233],[39.71362,-3.98185],[39.71079,-3.98663],[39.70552,-3.99114],[39.70288,-3.99488],[39.69907,-3.9982],[39.69901,-3.99783],[39.69832,-3.99722],[39.69821,-3.99696],[39.69784,-3.99518],[39.69608,-3.99404],[39.69601,-3.99339],[39.69559,-3.99281],[39.69584,-3.99184],[39.69376,-3.98913],[39.69244,-3.9871],[39.69196,-3.98593],[39.69178,-3.98512],[39.69172,-3.98229],[39.69147,-3.98152],[39.68874,-3.98023],[39.68754,-3.97984],[39.6866,-3.97975],[39.68603,-3.97993],[39.68512,-3.98051],[39.68303,-3.98226],[39.6815,-3.98254],[39.6815,-3.98144],[39.68128,-3.9812],[39.68073,-3.98112],[39.68049,-3.98088],[39.67983,-3.9793],[39.67913,-3.9785],[39.67884,-3.97713],[39.679,-3.97654],[39.67936,-3.97602],[39.68081,-3.97492],[39.68117,-3.97444],[39.68122,-3.97286],[39.68189,-3.97222],[39.68217,-3.9717],[39.68377,-3.97178],[39.68556,-3.97128],[39.69059,-3.97099],[39.69524,-3.9702],[39.69678,-3.96979],[39.69718,-3.96957],[39.69775,-3.96906],[39.69913,-3.96727],[39.69958,-3.96618],[39.69973,-3.9649],[39.69862,-3.96284],[39.69723,-3.96117],[39.69699,-3.96065],[39.69682,-3.9589],[39.6963,-3.95789],[39.6964,-3.95686],[39.69664,-3.95658],[39.69888,-3.95516],[39.70119,-3.95274],[39.70163,-3.95086],[39.70241,-3.95001],[39.70282,-3.94916],[39.70349,-3.94828],[39.70406,-3.94834],[39.70545,-3.9489],[39.70658,-3.94893],[39.70782,-3.94872],[39.71111,-3.94782],[39.71204,-3.94877],[39.71216,-3.94891]]]]}},{"type":"Feature","properties":{"code":"0012","name":"Mwakirunge","constituency":"Kisauni"},"geometry":{"type":"MultiPolygon","coordinates":[[[[39.62292,-3.9577],[39.62292,-3.95813],[39.62268,-3.95831],[39.6217,-3.9599],[39.6217,-3.96033],[39.62292,-3.96112],[39.62372,-3.96118],[39.6261,-3.96179],[39.62628,-3.9621],[39.62592,-3.96271],[39.6261,-3.9632],[39.62671,-3.96338],[39.6275,-3.96332],[39.62769,-3.96393],[39.6283,-3.96381],[39.62848,-3.9635],[39.62927,-3.96301],[39.63568,-3.95959],[39.64032,-3.95758],[39.64209,-3.95728],[39.64368,-3.95728],[39.64569,-3.9585],[39.64648,-3.9588],[39.64728,-3.96008],[39.64789,-3.96051],[39.64929,-3.96039],[39.65051,-3.96069],[39.65253,-3.96021],[39.65308,-3.96057],[39.65332,-3.96118],[39.65472,-3.96143],[39.65509,-3.96179],[39.65527,-3.96228],[39.65491,-3.96301],[39.65448,-3.96338],[39.65448,-3.9646],[39.65509,-3.96582],[39.6557,-3.96661],[39.65588,-3.96729],[39.6557,-3.9682],[39.65491,-3.96863],[39.65472,-3.96918],[39.65472,-3.96979],[39.65527,-3.9715],[39.65527,-3.9729],[39.65509,-3.97351],[39.65509,-3.97449],[39.65588,-3.9765],[39.6571,-3.97858],[39.65771,-3.9801],[39.65808,-3.98059],[39.65808,-3.98181],[39.65833,-3.98212],[39.65833,-3.98248],[39.65912,-3.98389],[39.6601,-3.9848],[39.66071,-3.9859],[39.66089,-3.98657],[39.66168,-3.98828],[39.66168,-3.98877],[39.66193,-3.98907],[39.66211,-3.98969],[39.66211,-3.9903],[39.66168,-3.9906],[39.66052,-3.99078],[39.66052,-3.99121],[39.66089,-3.99237],[39.66089,-3.99298],[39.66071,-3.99347],[39.65991,-3.99371],[39.65948,-3.99359],[39.65912,-3.99298],[39.65869,-3.9917],[39.65833,-3.99121],[39.65692,-3.99017],[39.65393,-3.98877],[39.65009,-3.98798],[39.6499,-3.98761],[39.64929,-3.98712],[39.6485,-3.98682],[39.64789,-3.98639],[39.64771,-3.9859],[39.64771,-3.9834],[39.64752,-3.98291],[39.64752,-3.9823],[39.64789,-3.98059],[39.64752,-3.97931],[39.64709,-3.97852],[39.64532,-3.97711],[39.6441,-3.9765],[39.64331,-3.9765],[39.64252,-3.97693],[39.64172,-3.97699],[39.64111,-3.97681],[39.64069,-3.97638],[39.64008,-3.9754],[39.63928,-3.97522],[39.63849,-3.97522],[39.63788,-3.9754],[39.63751,-3.97577],[39.6377,-3.97662],[39.6377,-3.97742],[39.63647,-3.97809],[39.63568,-3.97827],[39.63507,-3.97858],[39.63428,-3.97968],[39.63391,-3.98041],[39.6333,-3.98071],[39.63232,-3.98077],[39.6311,-3.98169],[39.63031,-3.98212],[39.62891,-3.98218],[39.6283,-3.98212],[39.62708,-3.98163],[39.62653,-3.9812],[39.62628,-3.98041],[39.62567,-3.97998],[39.62433,-3.97961],[39.62292,-3.97827],[39.62152,-3.97742],[39.6203,-3.97699],[39.6181,-3.97681],[39.6167,-3.97601],[39.61572,-3.97491],[39.61572,-3.97443],[39.61548,-3.97388],[39.61548,-3.97302],[39.61493,-3.97089],[39.61407,-3.96851],[39.61407,-3.9679],[39.61432,-3.96741],[39.61511,-3.96741],[39.61572,-3.9671],[39.61591,-3.9668],[39.61713,-3.9657],[39.61749,-3.96448],[39.61853,-3.96338],[39.61871,-3.96271],[39.61908,-3.9621],[39.61951,-3.96179],[39.62048,-3.96033],[39.62048,-3.95972],[39.6203,-3.95923],[39.61987,-3.95911],[39.61768,-3.95911],[39.61688,-3.95941],[39.61591,-3.96057],[39.61548,-3.96179],[39.61548,-3.9624],[39.6153,-3.96289],[39.6145,-3.96307],[39.61292,-3.96259],[39.61169,-3.9624],[39.61133,-3.96191],[39.61108,-3.96112],[39.61072,-3.96051],[39.61011,-3.96021],[39.60889,-3.96002],[39.60828,-3.95947],[39.60809,-3.95898],[39.60828,-3.95862],[39.60889,-3.95819],[39.60931,-3.95892],[39.60968,-3.95929],[39.61029,-3.95941],[39.61188,-3.95862],[39.61267,-3.9577],[39.6131,-3.95758],[39.61371,-3.95782],[39.6145,-3.95789],[39.61749,-3.95789],[39.61829,-3.9577],[39.61908,-3.9574],[39.61908,-3.95679],[39.61951,-3.95587],[39.61987,-3.95563],[39.62091,-3.95532],[39.6217,-3.95569],[39.6217,-3.9566],[39.62207,-3.95709],[39.62292,-3.9577]]],[[[39.67609,-3.92242],[39.67651,-3.92249],[39.67767,-3.92181],[39.67871,-3.92157],[39.68048,-3.922],[39.68213,-3.92273],[39.68512,-3.9234],[39.68628,-3.92291],[39.68811,-3.92322],[39.6889,-3.92352],[39.6897,-3.92358],[39.69031,-3.92328],[39.69067,-3.92273],[39.69128,-3.92279],[39.69171,-3.92249],[39.69232,-3.92261],[39.69208,-3.922],[39.69208,-3.92151],[39.69232,-3.92108],[39.69232,-3.92072],[39.69373,-3.92059],[39.69427,-3.92029],[39.6955,-3.91998],[39.6969,-3.91998],[39.69928,-3.92047],[39.69989,-3.9209],[39.69971,-3.92151],[39.69971,-3.9223],[39.6991,-3.9245],[39.6991,-3.92511],[39.69849,-3.92731],[39.6983,-3.92853],[39.69788,-3.92969],[39.69788,-3.93042],[39.69769,-3.93091],[39.69751,-3.9328],[39.69733,-3.93347],[39.69733,-3.93433],[39.69751,-3.93469],[39.69769,-3.9361],[39.69812,-3.93652],[39.6983,-3.93707],[39.69989,-3.9397],[39.7005,-3.94128],[39.70111,-3.94208],[39.70129,-3.94263],[39.7019,-3.94299],[39.7027,-3.94373],[39.70428,-3.94421],[39.7049,-3.94427],[39.70673,-3.94501],[39.70868,-3.94629],[39.71008,-3.9469],[39.71069,-3.94733],[39.71112,-3.94781],[39.70831,-3.94861],[39.70673,-3.94891],[39.70587,-3.94891],[39.70428,-3.94843],[39.70349,-3.94843],[39.70288,-3.94897],[39.70251,-3.95001],[39.70209,-3.95038],[39.70172,-3.95099],[39.70129,-3.95209],[39.70129,-3.95282],[39.69989,-3.95392],[39.69971,-3.95428],[39.6983,-3.95563],[39.69751,-3.95599],[39.69629,-3.95709],[39.69629,-3.95782],[39.69672,-3.95837],[39.6969,-3.95892],[39.6969,-3.96002],[39.69751,-3.96149],[39.69812,-3.96198],[39.69891,-3.96307],[39.69989,-3.96509],[39.69971,-3.96558],[39.69971,-3.96613],[39.69928,-3.96692],[39.69928,-3.96729],[39.69891,-3.96759],[39.69769,-3.96918],[39.69672,-3.96979],[39.69531,-3.97021],[39.69049,-3.97101],[39.68848,-3.97119],[39.6861,-3.97119],[39.6839,-3.9718],[39.68311,-3.97168],[39.68231,-3.9718],[39.68188,-3.97223],[39.68127,-3.97302],[39.68127,-3.97443],[39.68091,-3.97498],[39.67987,-3.97559],[39.67969,-3.97589],[39.67932,-3.97607],[39.67889,-3.97693],[39.67889,-3.97742],[39.67908,-3.97803],[39.6795,-3.97888],[39.68011,-3.97949],[39.68073,-3.98102],[39.68152,-3.9812],[39.68152,-3.98358],[39.68048,-3.9845],[39.67889,-3.98657],[39.67853,-3.98743],[39.67767,-3.98822],[39.67712,-3.9892],[39.67651,-3.98932],[39.6759,-3.98907],[39.67468,-3.98828],[39.67328,-3.98779],[39.6723,-3.98767],[39.66809,-3.98792],[39.66748,-3.98779],[39.66711,-3.9873],[39.66687,-3.98651],[39.6665,-3.9859],[39.66589,-3.98407],[39.66589,-3.9823],[39.66632,-3.98077],[39.66632,-3.9787],[39.66571,-3.97839],[39.66528,-3.97858],[39.66492,-3.979],[39.66449,-3.98041],[39.66388,-3.98071],[39.66333,-3.98041],[39.66333,-3.97937],[39.6637,-3.97839],[39.6637,-3.9776],[39.66333,-3.97662],[39.66193,-3.97589],[39.66107,-3.97589],[39.66028,-3.9765],[39.65973,-3.9762],[39.65887,-3.97498],[39.65833,-3.9729],[39.65833,-3.97223],[39.65887,-3.97021],[39.65948,-3.96912],[39.6601,-3.96759],[39.66028,-3.96729],[39.66193,-3.96588],[39.66229,-3.96539],[39.66229,-3.96503],[39.66248,-3.96472],[39.66211,-3.96393],[39.6615,-3.9635],[39.65912,-3.9632],[39.65851,-3.96301],[39.65808,-3.96252],[39.65808,-3.96191],[39.65887,-3.95972],[39.65948,-3.95892],[39.65948,-3.95679],[39.6601,-3.95538],[39.66132,-3.95398],[39.6615,-3.95349],[39.6615,-3.95288],[39.66211,-3.95117],[39.66211,-3.94983],[39.66193,-3.94928],[39.6615,-3.94867],[39.66071,-3.94678],[39.65973,-3.9458],[39.65887,-3.94537],[39.65692,-3.94489],[39.65649,-3.94458],[39.65588,-3.94373],[39.65527,-3.94379],[39.65509,-3.94421],[39.6557,-3.94458],[39.6557,-3.94537],[39.65649,-3.94568],[39.65747,-3.94568],[39.65808,-3.94592],[39.65851,-3.94629],[39.65851,-3.94672],[39.65833,-3.9472],[39.65887,-3.9483],[39.6593,-3.94879],[39.65991,-3.9502],[39.66028,-3.9516],[39.66028,-3.953],[39.65887,-3.95331],[39.65833,-3.9541],[39.65833,-3.95508],[39.6579,-3.95587],[39.65692,-3.95648],[39.65649,-3.95721],[39.65552,-3.95728],[39.65472,-3.95709],[39.65308,-3.95752],[39.65253,-3.95752],[39.6521,-3.95728],[39.65167,-3.95679],[39.65149,-3.9549],[39.65112,-3.95422],[39.65051,-3.95367],[39.64893,-3.95319],[39.64868,-3.95288],[39.64789,-3.95251],[39.64752,-3.95203],[39.6463,-3.95142],[39.64612,-3.95111],[39.64612,-3.95032],[39.64648,-3.94928],[39.64771,-3.94861],[39.64911,-3.94739],[39.6499,-3.94708],[39.65088,-3.9469],[39.65167,-3.94611],[39.65228,-3.94592],[39.65289,-3.94611],[39.6535,-3.94611],[39.65369,-3.94562],[39.65369,-3.94501],[39.6535,-3.9444],[39.65308,-3.94373],[39.65228,-3.94397],[39.65009,-3.94379],[39.64972,-3.94342],[39.65033,-3.94263],[39.65033,-3.94208],[39.65009,-3.94159],[39.65009,-3.94092],[39.64972,-3.94061],[39.6485,-3.94049],[39.6485,-3.94],[39.6499,-3.93903],[39.65009,-3.93848],[39.6507,-3.93817],[39.65088,-3.93762],[39.65051,-3.93689],[39.65009,-3.93652],[39.6499,-3.93597],[39.6499,-3.9353],[39.64929,-3.935],[39.64868,-3.93439],[39.64807,-3.93433],[39.64673,-3.93549],[39.64508,-3.93451],[39.64508,-3.93347],[39.64429,-3.93329],[39.64368,-3.93268],[39.64349,-3.93127],[39.64288,-3.93079],[39.6427,-3.9303],[39.64191,-3.92969],[39.64093,-3.93011],[39.6405,-3.92969],[39.63989,-3.92981],[39.63971,-3.9295],[39.63989,-3.92902],[39.64069,-3.92828],[39.6413,-3.92792],[39.64172,-3.92731],[39.64209,-3.92603],[39.64252,-3.92529],[39.64368,-3.92462],[39.64447,-3.92432],[39.64532,-3.92419],[39.64807,-3.9234],[39.65009,-3.92297],[39.6557,-3.92212],[39.65869,-3.92133],[39.6637,-3.91931],[39.66449,-3.91913],[39.66492,-3.91888],[39.66632,-3.91858],[39.66852,-3.91827],[39.67047,-3.9187],[39.67188,-3.91962],[39.67273,-3.92078],[39.67407,-3.92133],[39.67529,-3.92151],[39.6759,-3.92218],[39.67609,-3.92242]]]]}},{"type":"Feature","properties":{"code":"0013","name":"Mtopanga","constituency":"Kisauni"},"geometry":{"type":"MultiPolygon","coordinates":[[[[39.69652,-4.00265],[39.69481,-4.00463],[39.6939,-4.00623],[39.69264,-4.00561],[39.69241,-4.00486],[39.69167,-4.00458],[39.69118,-4.00403],[39.69047,-4.00398],[39.68952,-4.00351],[39.68899,-4.00298],[39.68852,-4.00351],[39.68775,-4.00393],[39.68747,-4.00427],[39.68676,-4.00541],[39.68653,-4.00612],[39.68602,-4.00601],[39.68488,-4.00612],[39.68399,-4.006],[39.68483,-4.00277],[39.68478,-3.99946],[39.68253,-3.99582],[39.68149,-3.99332],[39.68146,-3.99204],[39.68192,-3.99081],[39.6825,-3.98974],[39.68252,-3.9893],[39.68222,-3.98701],[39.68147,-3.98332],[39.6815,-3.98254],[39.68318,-3.9822],[39.68512,-3.98051],[39.68603,-3.97993],[39.6866,-3.97975],[39.68754,-3.97984],[39.68888,-3.98028],[39.69087,-3.98115],[39.69153,-3.9816],[39.69172,-3.98229],[39.69178,-3.98512],[39.69196,-3.98593],[39.69249,-3.98721],[39.69376,-3.98913],[39.69584,-3.99184],[39.69559,-3.99281],[39.69601,-3.99339],[39.69608,-3.99404],[39.69784,-3.99518],[39.69821,-3.99696],[39.69907,-3.99802],[39.69897,-3.99849],[39.69746,-4.00065],[39.69683,-4.00217],[39.69652,-4.00265]]]]}},{"type":"Feature","properties":{"code":"0014","name":"Magogoni","constituency":"Kisauni"},"geometry":{"type":"MultiPolygon","coordinates":[[[[39.69264,-4.00561],[39.6939,-4.00623],[39.69365,-4.00676],[39.69239,-4.01131],[39.6902,-4.0146],[39.68937,-4.01609],[39.68735,-4.02092],[39.6855,-4.02049],[39.68512,-4.02016],[39.6837,-4.01985],[39.68307,-4.01956],[39.68296,-4.01926],[39.68277,-4.01919],[39.68259,-4.01866],[39.68236,-4.01862],[39.68187,-4.01886],[39.68129,-4.01839],[39.683,-4.01562],[39.68343,-4.01462],[39.68288,-4.01005],[39.68399,-4.006],[39.68488,-4.00612],[39.68602,-4.00601],[39.68653,-4.00612],[39.68676,-4.00541],[39.68747,-4.00427],[39.68775,-4.00393],[39.68852,-4.00351],[39.68899,-4.00298],[39.68952,-4.00351],[39.69047,-4.00398],[39.69118,-4.00403],[39.69167,-4.00458],[39.69241,-4.00486],[39.69264,-4.00561]]]]}},{"type":"Feature","properties":{"code":"0015","name":"Shanzu","constituency":"Kisauni"},"geometry":{"type":"MultiPolygon","coordinates":[[[[39.73767,-3.95099],[39.73907,-3.95111],[39.73993,-3.95148],[39.74048,-3.95312],[39.74091,-3.95361],[39.74152,-3.9541],[39.7431,-3.95471],[39.7439,-3.95532],[39.74487,-3.95569],[39.74689,-3.95581],[39.74969,-3.95673],[39.75049,-3.95721],[39.75153,-3.9574],[39.75372,-3.9574],[39.75427,-3.95752],[39.75549,-3.95728],[39.75751,-3.9566],[39.75928,-3.95642],[39.75989,-3.95673],[39.76233,-3.95898],[39.76251,-3.95978],[39.76208,-3.96112],[39.76147,-3.96179],[39.76007,-3.96381],[39.75873,-3.9649],[39.75732,-3.96582],[39.75488,-3.9671],[39.7511,-3.9718],[39.75049,-3.97241],[39.75031,-3.9729],[39.74847,-3.97522],[39.74768,-3.97571],[39.74609,-3.9776],[39.7453,-3.97821],[39.74512,-3.9787],[39.74371,-3.97998],[39.74188,-3.98212],[39.74072,-3.98389],[39.73993,-3.9848],[39.73889,-3.98547],[39.73688,-3.98779],[39.73669,-3.98828],[39.73352,-3.99292],[39.73187,-3.995],[39.73108,-3.99628],[39.73108,-3.99689],[39.73132,-3.99768],[39.73273,-3.99921],[39.73291,-3.99982],[39.73291,-4.00061],[39.73273,-4.0014],[39.7323,-4.00201],[39.73132,-4.00311],[39.72888,-4.00421],[39.72809,-4.005],[39.72729,-4.0061],[39.72308,-4.005],[39.72247,-4.00458],[39.72211,-4.00488],[39.72009,-4.00427],[39.71851,-4.00342],[39.71613,-4.00269],[39.71472,-4.00171],[39.71228,-4.00189],[39.71069,-4.00153],[39.70892,-4.00031],[39.70831,-4.00012],[39.70569,-3.99988],[39.6983,-3.99982],[39.69849,-3.99908],[39.70129,-3.99622],[39.70251,-3.9953],[39.70312,-3.99463],[39.70392,-3.99359],[39.70428,-3.9928],[39.70551,-3.99121],[39.71112,-3.98639],[39.71173,-3.98511],[39.71552,-3.9787],[39.71729,-3.9751],[39.71869,-3.9729],[39.71912,-3.97162],[39.71912,-3.97101],[39.71991,-3.96979],[39.72052,-3.96851],[39.72028,-3.96661],[39.72131,-3.9649],[39.72369,-3.9624],[39.72852,-3.95862],[39.72913,-3.95673],[39.72968,-3.95587],[39.7309,-3.95471],[39.73492,-3.95331],[39.73468,-3.95288],[39.73492,-3.95203],[39.73492,-3.95142],[39.73529,-3.95001],[39.7359,-3.9494],[39.73633,-3.94983],[39.73669,-3.9505],[39.73767,-3.95099]]]]}},{"type":"Feature","properties":{"code":"0016","name":"Frere Town","constituency":"Nyali"},"geometry":{"type":"MultiPolygon","coordinates":[[[[39.6925,-4.02342],[39.69295,-4.02405],[39.69387,-4.02388],[39.69437,-4.02471],[39.69234,-4.02612],[39.68737,-4.03091],[39.68532,-4.03244],[39.68156,-4.03443],[39.68148,-4.03324],[39.68163,-4.0326],[39.68255,-4.03075],[39.68275,-4.02888],[39.68556,-4.02471],[39.68786,-4.01963],[39.68884,-4.02005],[39.69033,-4.02125],[39.69284,-4.02211],[39.6925,-4.02342]]]]}},{"type":"Feature","properties":{"code":"0017","name":"Ziwa La Ng'ombe","constituency":"Nyali"},"geometry":{"type":"MultiPolygon","coordinates":[[[[39.72274,-4.00515],[39.72454,-4.00531],[39.7266,-4.00603],[39.72616,-4.00802],[39.72616,-4.01127],[39.72626,-4.0117],[39.72662,-4.01262],[39.72686,-4.01289],[39.72727,-4.01323],[39.7284,-4.01373],[39.73031,-4.01571],[39.73047,-4.01603],[39.73051,-4.01686],[39.73009,-4.01819],[39.72868,-4.01968],[39.72828,-4.02098],[39.72808,-4.02123],[39.72702,-4.0215],[39.72601,-4.02155],[39.72497,-4.02189],[39.72454,-4.02218],[39.72343,-4.02331],[39.72184,-4.02601],[39.71861,-4.03032],[39.71699,-4.0334],[39.714,-4.03829],[39.71149,-4.03752],[39.71174,-4.03628],[39.71168,-4.03584],[39.71092,-4.03575],[39.70715,-4.03396],[39.7058,-4.03582],[39.70399,-4.03779],[39.70313,-4.03956],[39.7009,-4.04102],[39.69883,-4.03563],[39.69868,-4.03537],[39.69815,-4.03501],[39.69762,-4.03495],[39.69643,-4.03413],[39.69619,-4.0341],[39.69557,-4.03436],[39.69381,-4.03431],[39.69359,-4.03422],[39.69333,-4.03387],[39.69264,-4.03378],[39.69199,-4.03302],[39.69138,-4.033],[39.69024,-4.03332],[39.6893,-4.03335],[39.68816,-4.03283],[39.68695,-4.03277],[39.68625,-4.03303],[39.68515,-4.03253],[39.68737,-4.03091],[39.69234,-4.02612],[39.69693,-4.02315],[39.69837,-4.02267],[39.71524,-4.01938],[39.71684,-4.01884],[39.71794,-4.01825],[39.71897,-4.01721],[39.72021,-4.0154],[39.72049,-4.01475],[39.72066,-4.01332],[39.72225,-4.00501],[39.72274,-4.00515]]]]}},{"type":"Feature","properties":{"code":"0018","name":"Mkomani","constituency":"Nyali"},"geometry":{"type":"MultiPolygon","coordinates":[[[[39.71092,-4.03575],[39.71168,-4.03584],[39.71176,-4.03601],[39.71149,-4.03752],[39.714,-4.03829],[39.71174,-4.04121],[39.71111,-4.04303],[39.70934,-4.04598],[39.7086,-4.0467],[39.70736,-4.04756],[39.70637,-4.04864],[39.70511,-4.0509],[39.70466,-4.0522],[39.70373,-4.05362],[39.70287,-4.05527],[39.70227,-4.05592],[39.70175,-4.05617],[39.6999,-4.05795],[39.69889,-4.05836],[39.69697,-4.05971],[39.69388,-4.06102],[39.69269,-4.06136],[39.69017,-4.06138],[39.68895,-4.06131],[39.68825,-4.06118],[39.6873,-4.06079],[39.68642,-4.06072],[39.6855,-4.06113],[39.68509,-4.06151],[39.68482,-4.06151],[39.68396,-4.0607],[39.68274,-4.05858],[39.68264,-4.05791],[39.68322,-4.05662],[39.68313,-4.05549],[39.6825,-4.05453],[39.6805,-4.0532],[39.6805,-4.05272],[39.68119,-4.05218],[39.68139,-4.05187],[39.68142,-4.05151],[39.68105,-4.04849],[39.68026,-4.0474],[39.68022,-4.04709],[39.68024,-4.04648],[39.68074,-4.04546],[39.68147,-4.04542],[39.68138,-4.04622],[39.68336,-4.04678],[39.68557,-4.04693],[39.68719,-4.04942],[39.69233,-4.04603],[39.70296,-4.03975],[39.70399,-4.03779],[39.7058,-4.03582],[39.70715,-4.03396],[39.71069,-4.03565],[39.71092,-4.03575]]]]}},{"type":"Feature","properties":{"code":"0019","name":"Kongowea","constituency":"Nyali"},"geometry":{"type":"MultiPolygon","coordinates":[[[[39.6861,-4.03301],[39.68695,-4.03277],[39.68782,-4.03279],[39.68841,-4.03291],[39.6893,-4.03335],[39.68975,-4.03335],[39.69182,-4.03299],[39.69213,-4.03313],[39.69264,-4.03378],[39.69333,-4.03387],[39.69359,-4.03422],[39.69381,-4.03431],[39.69557,-4.03436],[39.69619,-4.0341],[39.69643,-4.03413],[39.69762,-4.03495],[39.69815,-4.03501],[39.69868,-4.03537],[39.69883,-4.03563],[39.7009,-4.04102],[39.69233,-4.04603],[39.68719,-4.04942],[39.68557,-4.04693],[39.68336,-4.04678],[39.68138,-4.04622],[39.68147,-4.04542],[39.68201,-4.04383],[39.68192,-4.04223],[39.68115,-4.03942],[39.68064,-4.03807],[39.67977,-4.03639],[39.6813,-4.03464],[39.68241,-4.03392],[39.68515,-4.03253],[39.68589,-4.03291],[39.6861,-4.03301]]]]}},{"type":"Feature","properties":{"code":"0020","name":"Kadzandani","constituency":"Nyali"},"geometry":{"type":"MultiPolygon","coordinates":[[[[39.70293,-3.99985],[39.70548,-3.99991],[39.7083,-4.00015],[39.7091,-4.00053],[39.70998,-4.00135],[39.71045,-4.00155],[39.71168,-4.00184],[39.71448,-4.00185],[39.71603,-4.00278],[39.71932,-4.00415],[39.72225,-4.00501],[39.72066,-4.01332],[39.72049,-4.01475],[39.71967,-4.01624],[39.71848,-4.0178],[39.71794,-4.01825],[39.71684,-4.01884],[39.71524,-4.01938],[39.69837,-4.02267],[39.69653,-4.02334],[39.69437,-4.02471],[39.69387,-4.02388],[39.69295,-4.02405],[39.6925,-4.02342],[39.69284,-4.02211],[39.69033,-4.02125],[39.68884,-4.02005],[39.68786,-4.01963],[39.68937,-4.01609],[39.6902,-4.0146],[39.69239,-4.01131],[39.69365,-4.00676],[39.69414,-4.00568],[39.69481,-4.00463],[39.69652,-4.00265],[39.69774,-4.00021],[39.69804,-3.99985],[39.70247,-3.99985],[39.70293,-3.99985]]]]}},{"type":"Feature","properties":{"code":"0021","name":"Mtongwe","constituency":"Likoni"},"geometry":{"type":"MultiPolygon","coordinates":[[[[39.64148,-4.0611],[39.64191,-4.06207],[39.64172,-4.06268],[39.6413,-4.06311],[39.6413,-4.06458],[39.64111,-4.06512],[39.64252,-4.0683],[39.64313,-4.06897],[39.64392,-4.06927],[39.6441,-4.06982],[39.64471,-4.0708],[39.64508,-4.07111],[39.64648,-4.07178],[39.64673,-4.0722],[39.64868,-4.07349],[39.64868,-4.0741],[39.64893,-4.07458],[39.64893,-4.07532],[39.64691,-4.07568],[39.6463,-4.07727],[39.64587,-4.078],[39.64587,-4.07928],[39.64551,-4.08032],[39.64508,-4.08069],[39.64429,-4.08179],[39.64392,-4.0827],[39.64392,-4.08337],[39.64252,-4.08459],[39.64288,-4.08618],[39.64331,-4.08661],[39.64252,-4.0874],[39.6427,-4.0882],[39.64209,-4.08868],[39.64032,-4.08881],[39.63953,-4.0896],[39.63849,-4.0899],[39.63788,-4.09052],[39.63812,-4.09119],[39.63867,-4.09161],[39.63892,-4.09241],[39.63849,-4.09332],[39.63788,-4.09387],[39.63733,-4.09387],[39.6369,-4.09351],[39.63647,-4.09338],[39.6355,-4.09381],[39.63507,-4.09332],[39.63531,-4.09229],[39.63531,-4.091],[39.63568,-4.08868],[39.63593,-4.08429],[39.63611,-4.0838],[39.63611,-4.08319],[39.63232,-4.08228],[39.63049,-4.0816],[39.62952,-4.08099],[39.62927,-4.08051],[39.62872,-4.08038],[39.62372,-4.08051],[39.62329,-4.08069],[39.62207,-4.08173],[39.62189,-4.0824],[39.62152,-4.08282],[39.61951,-4.08429],[39.61768,-4.08643],[39.61731,-4.0871],[39.61652,-4.0871],[39.61469,-4.08649],[39.6131,-4.08649],[39.61249,-4.08661],[39.61047,-4.08612],[39.60931,-4.08618],[39.6087,-4.08649],[39.60828,-4.08728],[39.60791,-4.08759],[39.60712,-4.08759],[39.60651,-4.08789],[39.60687,-4.08972],[39.60687,-4.09027],[39.60651,-4.09137],[39.60651,-4.09399],[39.60449,-4.09601],[39.6037,-4.09637],[39.60193,-4.0965],[39.60132,-4.09668],[39.60089,-4.09698],[39.59851,-4.10028],[39.59833,-4.10101],[39.59949,-4.10278],[39.59991,-4.10321],[39.6001,-4.1037],[39.6001,-4.10797],[39.59949,-4.10962],[39.59808,-4.11108],[39.59772,-4.11169],[39.59711,-4.11218],[39.59668,-4.11298],[39.59589,-4.11371],[39.59192,-4.11371],[39.58911,-4.11591],[39.58771,-4.11658],[39.58728,-4.11731],[39.5871,-4.11792],[39.58673,-4.11829],[39.58612,-4.11841],[39.58551,-4.11829],[39.58411,-4.11737],[39.5827,-4.11603],[39.5835,-4.11609],[39.58508,-4.11578],[39.58569,-4.11499],[39.58569,-4.11438],[39.58612,-4.112],[39.5863,-4.11157],[39.58789,-4.11108],[39.5885,-4.11047],[39.58893,-4.1098],[39.58948,-4.10809],[39.58948,-4.10773],[39.58929,-4.10718],[39.58868,-4.10687],[39.58832,-4.10638],[39.58893,-4.10602],[39.58948,-4.1059],[39.59088,-4.10632],[39.59149,-4.10608],[39.59253,-4.10553],[39.5929,-4.10431],[39.59271,-4.1037],[39.59271,-4.10309],[39.5907,-4.1015],[39.59009,-4.10077],[39.58911,-4.09943],[39.58893,-4.09802],[39.58807,-4.09723],[39.58807,-4.09601],[39.5885,-4.0954],[39.5885,-4.0943],[39.58832,-4.09369],[39.58832,-4.0929],[39.58807,-4.0921],[39.58649,-4.09088],[39.58551,-4.09027],[39.5849,-4.09009],[39.58447,-4.0896],[39.58429,-4.08911],[39.58429,-4.0874],[39.5849,-4.08582],[39.58569,-4.0849],[39.58569,-4.08441],[39.58551,-4.0838],[39.58649,-4.08191],[39.58728,-4.07977],[39.58789,-4.07953],[39.58807,-4.0791],[39.58807,-4.078],[39.58771,-4.07758],[39.58673,-4.0769],[39.58649,-4.07648],[39.5863,-4.07507],[39.58673,-4.07483],[39.58789,-4.07483],[39.58911,-4.07458],[39.59027,-4.0741],[39.59088,-4.07361],[39.59149,-4.073],[39.59192,-4.07233],[39.59229,-4.07111],[39.59229,-4.0705],[39.59271,-4.06982],[39.5929,-4.06909],[39.59412,-4.06769],[39.59473,-4.06732],[39.59509,-4.06677],[39.59509,-4.06592],[39.5929,-4.06549],[39.59253,-4.06512],[39.5929,-4.06372],[39.59192,-4.06293],[39.59253,-4.0625],[39.59473,-4.06281],[39.59747,-4.06281],[39.59808,-4.06299],[39.59912,-4.06299],[39.59949,-4.06268],[39.60107,-4.06232],[39.6015,-4.06158],[39.6015,-4.06122],[39.60211,-4.06122],[39.60272,-4.06152],[39.60291,-4.06189],[39.60327,-4.06219],[39.60449,-4.06281],[39.6051,-4.06293],[39.60669,-4.06238],[39.60712,-4.06207],[39.6073,-4.06171],[39.60712,-4.06122],[39.60712,-4.06079],[39.60791,-4.06091],[39.60852,-4.06122],[39.60913,-4.06128],[39.61029,-4.06189],[39.61047,-4.06219],[39.61108,-4.06232],[39.61169,-4.06262],[39.61212,-4.06348],[39.61249,-4.06378],[39.61292,-4.06458],[39.61353,-4.0647],[39.6145,-4.06458],[39.61548,-4.0639],[39.61591,-4.06329],[39.61652,-4.06281],[39.61768,-4.06281],[39.61871,-4.06299],[39.61987,-4.06372],[39.62109,-4.06342],[39.62128,-4.06293],[39.62128,-4.0625],[39.62109,-4.06207],[39.61969,-4.06091],[39.61853,-4.05969],[39.61713,-4.05939],[39.61652,-4.05939],[39.61609,-4.05908],[39.61713,-4.05829],[39.61853,-4.0578],[39.61987,-4.05762],[39.62048,-4.05768],[39.62207,-4.05829],[39.62372,-4.05933],[39.62433,-4.05957],[39.62469,-4.06012],[39.62628,-4.06091],[39.6283,-4.0614],[39.62927,-4.0614],[39.63013,-4.06122],[39.63269,-4.05908],[39.63409,-4.05823],[39.63672,-4.05701],[39.63708,-4.0567],[39.63733,-4.05627],[39.63751,-4.05573],[39.63751,-4.05432],[39.63733,-4.05371],[39.63611,-4.05182],[39.63611,-4.05109],[39.63647,-4.0498],[39.63672,-4.04938],[39.63708,-4.047],[39.6377,-4.04669],[39.63812,-4.04718],[39.63849,-4.04901],[39.63849,-4.052],[39.63867,-4.05261],[39.63867,-4.0531],[39.63892,-4.05359],[39.6391,-4.0556],[39.63971,-4.05627],[39.63989,-4.05682],[39.64032,-4.05731],[39.6413,-4.06012],[39.6413,-4.06061],[39.64148,-4.0611]]]]}},{"type":"Feature","properties":{"code":"0022","name":"Shika Adabu","constituency":"Likoni"},"geometry":{"type":"MultiPolygon","coordinates":[[[[39.63568,-4.0863],[39.63568,-4.08868],[39.63531,-4.091],[39.63531,-4.09229],[39.63507,-4.09332],[39.63531,-4.09399],[39.64331,-4.09802],[39.64288,-4.09857],[39.64191,-4.10059],[39.64148,-4.10101],[39.63892,-4.10681],[39.64368,-4.10901],[39.64471,-4.10919],[39.64508,-4.10937],[39.64569,-4.10919],[39.64691,-4.1084],[39.64929,-4.10809],[39.65009,-4.10828],[39.65088,-4.10828],[39.65149,-4.10858],[39.65369,-4.10883],[39.65509,-4.10937],[39.65588,-4.10999],[39.65649,-4.11023],[39.65668,-4.11047],[39.65771,-4.11102],[39.65887,-4.11108],[39.66052,-4.1106],[39.66107,-4.1109],[39.66309,-4.11102],[39.66309,-4.11139],[39.66272,-4.11261],[39.66272,-4.1131],[39.66229,-4.11432],[39.66211,-4.11639],[39.66193,-4.11713],[39.66168,-4.1178],[39.66132,-4.1181],[39.65851,-4.11938],[39.65771,-4.12],[39.65649,-4.12372],[39.6557,-4.12567],[39.65491,-4.12659],[39.65448,-4.12732],[39.65411,-4.12878],[39.65411,-4.12939],[39.65289,-4.13263],[39.65253,-4.13312],[39.65253,-4.13361],[39.65228,-4.1344],[39.65149,-4.13617],[39.65149,-4.13721],[39.65131,-4.13782],[39.65088,-4.13843],[39.65088,-4.13898],[39.65009,-4.14001],[39.65009,-4.14062],[39.64929,-4.14172],[39.64868,-4.14227],[39.64789,-4.14331],[39.64771,-4.1441],[39.64728,-4.14471],[39.64673,-4.14618],[39.64612,-4.1488],[39.64569,-4.14978],[39.64508,-4.15039],[39.64313,-4.15118],[39.64252,-4.1524],[39.63251,-4.14612],[39.62628,-4.1416],[39.62988,-4.13678],[39.62988,-4.13599],[39.63092,-4.13379],[39.63092,-4.13287],[39.63129,-4.1319],[39.63129,-4.1311],[39.63153,-4.13031],[39.63153,-4.12921],[39.63171,-4.1286],[39.63171,-4.1272],[39.63208,-4.12598],[39.63208,-4.12543],[39.63251,-4.12451],[39.63348,-4.12341],[39.63593,-4.12201],[39.63672,-4.12201],[39.63733,-4.12109],[39.63788,-4.11932],[39.63788,-4.11829],[39.63507,-4.11823],[39.63348,-4.11792],[39.63208,-4.11652],[39.6311,-4.11359],[39.62927,-4.11047],[39.62848,-4.1098],[39.62708,-4.10809],[39.61212,-4.09241],[39.61371,-4.09131],[39.61353,-4.09082],[39.61292,-4.09058],[39.6123,-4.09058],[39.61151,-4.091],[39.61011,-4.09229],[39.60828,-4.08722],[39.6087,-4.08649],[39.60968,-4.08612],[39.61047,-4.08612],[39.61249,-4.08661],[39.6131,-4.08649],[39.61469,-4.08649],[39.61652,-4.0871],[39.61731,-4.0871],[39.61768,-4.08643],[39.61951,-4.08429],[39.62152,-4.08282],[39.62189,-4.0824],[39.62207,-4.08173],[39.62268,-4.08112],[39.62372,-4.08051],[39.62872,-4.08038],[39.62927,-4.08051],[39.62952,-4.08099],[39.62988,-4.0813],[39.63129,-4.08191],[39.63232,-4.08228],[39.63611,-4.08313],[39.63611,-4.0838],[39.63593,-4.08429],[39.63593,-4.08533],[39.63568,-4.0863]]]]}},{"type":"Feature","properties":{"code":"0023","name":"Bofu","constituency":"Likoni"},"geometry":{"type":"MultiPolygon","coordinates":[[[[39.65215,-4.08401],[39.65203,-4.0843],[39.65074,-4.08421],[39.64897,-4.08381],[39.64834,-4.0829],[39.64617,-4.08244],[39.64537,-4.08193],[39.64505,-4.08132],[39.64579,-4.08102],[39.64609,-4.08071],[39.6465,-4.07955],[39.64744,-4.07918],[39.64799,-4.0788],[39.6481,-4.07767],[39.64904,-4.07635],[39.64928,-4.0756],[39.64975,-4.07491],[39.65013,-4.07294],[39.65121,-4.07268],[39.65211,-4.07226],[39.65248,-4.07225],[39.65306,-4.07244],[39.65331,-4.07261],[39.65498,-4.07465],[39.65665,-4.07597],[39.65723,-4.07686],[39.65814,-4.0776],[39.65913,-4.07866],[39.65981,-4.07915],[39.66195,-4.07978],[39.66104,-4.08097],[39.6602,-4.08159],[39.65898,-4.08197],[39.65548,-4.0823],[39.65279,-4.0829],[39.65224,-4.0837],[39.65215,-4.08401]]]]}},{"type":"Feature","properties":{"code":"0024","name":"Likoni","constituency":"Likoni"},"geometry":{"type":"MultiPolygon","coordinates":[[[[39.65168,-4.08485],[39.64332,-4.09796],[39.63519,-4.09402],[39.63563,-4.09369],[39.63649,-4.09341],[39.63683,-4.09349],[39.63723,-4.09391],[39.63763,-4.09405],[39.63795,-4.09387],[39.63885,-4.09266],[39.63889,-4.09222],[39.63861,-4.09154],[39.63784,-4.09112],[39.63775,-4.09074],[39.63796,-4.09032],[39.63826,-4.09001],[39.6396,-4.08946],[39.6402,-4.08878],[39.64178,-4.08878],[39.64264,-4.08843],[39.64251,-4.08746],[39.6426,-4.08722],[39.64316,-4.08685],[39.64327,-4.08657],[39.64289,-4.08617],[39.64241,-4.08464],[39.64304,-4.08401],[39.64369,-4.08358],[39.64385,-4.08321],[39.64392,-4.08236],[39.64433,-4.0818],[39.64344,-4.08497],[39.643,-4.08544],[39.64338,-4.08553],[39.6436,-4.08536],[39.64391,-4.08447],[39.64452,-4.08387],[39.64459,-4.08152],[39.64505,-4.08132],[39.64537,-4.08193],[39.64617,-4.08244],[39.64834,-4.0829],[39.64897,-4.08381],[39.65074,-4.08421],[39.65202,-4.08432],[39.65168,-4.08485]]]]}},{"type":"Feature","properties":{"code":"0025","name":"Timbwani","constituency":"Likoni"},"geometry":{"type":"MultiPolygon","coordinates":[[[[39.66555,-4.08075],[39.66805,-4.08056],[39.67019,-4.08095],[39.67241,-4.08089],[39.67304,-4.08099],[39.67405,-4.0815],[39.67443,-4.08213],[39.67426,-4.08463],[39.67419,-4.08501],[39.67331,-4.08684],[39.67348,-4.08712],[39.67433,-4.08765],[39.67447,-4.08792],[39.67445,-4.08847],[39.67404,-4.09186],[39.67184,-4.09695],[39.67009,-4.10026],[39.669,-4.10178],[39.66828,-4.10312],[39.66545,-4.10758],[39.66503,-4.10805],[39.66454,-4.10906],[39.66328,-4.1103],[39.66295,-4.11102],[39.66098,-4.11096],[39.66017,-4.11059],[39.65856,-4.11115],[39.6577,-4.11112],[39.65722,-4.11098],[39.65649,-4.11035],[39.65567,-4.11001],[39.65507,-4.10951],[39.6534,-4.10876],[39.652,-4.10878],[39.65095,-4.10838],[39.65006,-4.10834],[39.64898,-4.10809],[39.64772,-4.10838],[39.64686,-4.10842],[39.64569,-4.10928],[39.64474,-4.10934],[39.64048,-4.10762],[39.63884,-4.10681],[39.64091,-4.10202],[39.64247,-4.09921],[39.65202,-4.08432],[39.65255,-4.08314],[39.65279,-4.0829],[39.65548,-4.0823],[39.65898,-4.08197],[39.65975,-4.08177],[39.6602,-4.08159],[39.66104,-4.08097],[39.66195,-4.07978],[39.66382,-4.08041],[39.66526,-4.08069],[39.66555,-4.08075]]]]}},{"type":"Feature","properties":{"code":"0026","name":"Mji Wa Kale/Makadara","constituency":"Mvita"},"geometry":{"type":"MultiPolygon","coordinates":[[[[39.67749,-4.07111],[39.67688,-4.07123],[39.67633,-4.07111],[39.67609,-4.07147],[39.67468,-4.07178],[39.67291,-4.07312],[39.67249,-4.07318],[39.67249,-4.07361],[39.67212,-4.0741],[39.67133,-4.07458],[39.6709,-4.07532],[39.6701,-4.07593],[39.66809,-4.07629],[39.66748,-4.07611],[39.66528,-4.07617],[39.66388,-4.07599],[39.66388,-4.0755],[39.66431,-4.0752],[39.66449,-4.07489],[39.66553,-4.0722],[39.66553,-4.07159],[39.66687,-4.06848],[39.66791,-4.0672],[39.66888,-4.06549],[39.67047,-4.0603],[39.67151,-4.05731],[39.67212,-4.05597],[39.67249,-4.05469],[39.6723,-4.05389],[39.67188,-4.05341],[39.67188,-4.05298],[39.67468,-4.04651],[39.67572,-4.04529],[39.67651,-4.04523],[39.67712,-4.04541],[39.67712,-4.04602],[39.67688,-4.04657],[39.67572,-4.04773],[39.6745,-4.04999],[39.67432,-4.05072],[39.67432,-4.05243],[39.67468,-4.0531],[39.67572,-4.05402],[39.67651,-4.05511],[39.67688,-4.05518],[39.67731,-4.0556],[39.67792,-4.05591],[39.67828,-4.0564],[39.67908,-4.05682],[39.67932,-4.05731],[39.67932,-4.0578],[39.67969,-4.05829],[39.67969,-4.05908],[39.67932,-4.05969],[39.67987,-4.06],[39.68073,-4.06012],[39.68109,-4.06073],[39.68152,-4.06201],[39.68231,-4.06299],[39.6825,-4.0636],[39.68213,-4.0647],[39.68213,-4.06512],[39.68188,-4.06543],[39.68231,-4.06659],[39.68268,-4.06812],[39.68268,-4.06879],[39.68188,-4.0694],[39.68011,-4.07019],[39.67908,-4.07031],[39.67853,-4.0708],[39.67792,-4.07098],[39.67749,-4.07111]]]]}},{"type":"Feature","properties":{"code":"0027","name":"Tudor","constituency":"Mvita"},"geometry":{"type":"MultiPolygon","coordinates":[[[[39.6637,-4.02863],[39.66431,-4.02869],[39.66571,-4.0285],[39.6665,-4.02887],[39.66687,-4.02948],[39.66687,-4.02991],[39.66772,-4.0307],[39.66852,-4.03119],[39.66968,-4.0332],[39.6701,-4.03339],[39.67029,-4.0332],[39.6709,-4.0332],[39.67212,-4.03357],[39.67273,-4.03351],[39.67291,-4.0332],[39.67328,-4.0332],[39.67389,-4.0329],[39.67432,-4.03302],[39.67468,-4.03461],[39.6745,-4.03491],[39.6745,-4.03528],[39.67389,-4.03589],[39.67352,-4.03583],[39.67249,-4.03638],[39.67188,-4.0365],[39.67151,-4.0368],[39.67133,-4.03711],[39.67133,-4.03741],[39.67151,-4.03772],[39.6709,-4.03809],[39.67047,-4.03802],[39.67029,-4.03772],[39.67029,-4.0368],[39.6701,-4.0368],[39.66931,-4.03619],[39.66888,-4.03638],[39.66888,-4.03668],[39.6687,-4.0368],[39.66827,-4.03662],[39.66827,-4.03571],[39.66687,-4.03571],[39.66632,-4.03589],[39.66589,-4.03638],[39.66608,-4.039],[39.66431,-4.04022],[39.66309,-4.04077],[39.66028,-4.04327],[39.65369,-4.0354],[39.65228,-4.03241],[39.65308,-4.03168],[39.65393,-4.0318],[39.6543,-4.0321],[39.65472,-4.03223],[39.65527,-4.03223],[39.65491,-4.03168],[39.65491,-4.03131],[39.65552,-4.03052],[39.65613,-4.02991],[39.65649,-4.02972],[39.65668,-4.02942],[39.65833,-4.02869],[39.65948,-4.02838],[39.66229,-4.02832],[39.66309,-4.0285],[39.6637,-4.02863]]]]}},{"type":"Feature","properties":{"code":"0028","name":"Tononoka","constituency":"Mvita"},"geometry":{"type":"MultiPolygon","coordinates":[[[[39.66809,-4.03572],[39.66821,-4.03601],[39.6681,-4.03652],[39.66833,-4.03682],[39.66879,-4.03681],[39.66873,-4.03771],[39.66906,-4.03839],[39.66911,-4.0391],[39.66968,-4.03927],[39.67006,-4.03974],[39.67004,-4.04016],[39.67018,-4.04038],[39.67012,-4.04093],[39.67045,-4.04238],[39.67035,-4.04305],[39.66994,-4.04326],[39.66994,-4.04349],[39.67059,-4.0437],[39.67096,-4.04342],[39.67137,-4.0434],[39.67216,-4.04398],[39.67252,-4.04467],[39.67336,-4.04511],[39.67389,-4.04501],[39.67449,-4.04445],[39.67503,-4.04435],[39.67673,-4.04437],[39.67744,-4.04456],[39.67748,-4.04469],[39.67745,-4.04526],[39.67726,-4.04537],[39.67611,-4.04519],[39.67548,-4.04538],[39.67524,-4.04562],[39.67358,-4.04872],[39.67175,-4.05311],[39.67172,-4.05338],[39.67233,-4.05421],[39.67231,-4.05476],[39.67197,-4.05585],[39.67095,-4.05579],[39.66952,-4.05475],[39.66791,-4.05398],[39.66667,-4.05232],[39.66648,-4.05179],[39.66355,-4.04731],[39.66023,-4.04333],[39.66331,-4.04063],[39.66608,-4.03926],[39.66584,-4.03635],[39.66667,-4.03577],[39.66805,-4.03571],[39.66809,-4.03572]]]]}},{"type":"Feature","properties":{"code":"0029","name":"Shimanzi/Ganjoni","constituency":"Mvita"},"geometry":{"type":"MultiPolygon","coordinates":[[[[39.64111,-4.04108],[39.64069,-4.04132],[39.64069,-4.04089],[39.64111,-4.04108]]],[[[39.64111,-4.04108],[39.6413,-4.04077],[39.6413,-4.03912],[39.6405,-4.03839],[39.64111,-4.03821],[39.64093,-4.03778],[39.6405,-4.03778],[39.64032,-4.03748],[39.6413,-4.03711],[39.64252,-4.03638],[39.6427,-4.03662],[39.64252,-4.03699],[39.64331,-4.03741],[39.64368,-4.03729],[39.64447,-4.03668],[39.64551,-4.03699],[39.64612,-4.03741],[39.64648,-4.03748],[39.64709,-4.03729],[39.6485,-4.0365],[39.64868,-4.03668],[39.64911,-4.03662],[39.64948,-4.03601],[39.6507,-4.03491],[39.65131,-4.03461],[39.6521,-4.03387],[39.6521,-4.0332],[39.65192,-4.0329],[39.65228,-4.03271],[39.65369,-4.0354],[39.65411,-4.03589],[39.65253,-4.03717],[39.65393,-4.03949],[39.65308,-4.04022],[39.65411,-4.04388],[39.65472,-4.04547],[39.65472,-4.04608],[39.6557,-4.04901],[39.6571,-4.04919],[39.6571,-4.05139],[39.65668,-4.05231],[39.65692,-4.05371],[39.66272,-4.0545],[39.66193,-4.05658],[39.66132,-4.05621],[39.65692,-4.05511],[39.65692,-4.05798],[39.65912,-4.05811],[39.6615,-4.05841],[39.66248,-4.05872],[39.66449,-4.0589],[39.66632,-4.0589],[39.67047,-4.0603],[39.66888,-4.06567],[39.66791,-4.0672],[39.66687,-4.06848],[39.66553,-4.07159],[39.66553,-4.0722],[39.66449,-4.07489],[39.66431,-4.0752],[39.6637,-4.07538],[39.66333,-4.0752],[39.66132,-4.0722],[39.66132,-4.0719],[39.66229,-4.07098],[39.66272,-4.07031],[39.66272,-4.07001],[39.66309,-4.06927],[39.66309,-4.06818],[39.66229,-4.06653],[39.66229,-4.06531],[39.66193,-4.06519],[39.66132,-4.06531],[39.66028,-4.0661],[39.66028,-4.06653],[39.66052,-4.06708],[39.66089,-4.0672],[39.66089,-4.06763],[39.66132,-4.06848],[39.6615,-4.06952],[39.66168,-4.06982],[39.6615,-4.07001],[39.66028,-4.07031],[39.66028,-4.06952],[39.65991,-4.0697],[39.65948,-4.0697],[39.65912,-4.0694],[39.65912,-4.06873],[39.65869,-4.06787],[39.6579,-4.06702],[39.6571,-4.06659],[39.65668,-4.06671],[39.65668,-4.0672],[39.65631,-4.06708],[39.65631,-4.06628],[39.6571,-4.06598],[39.6571,-4.0647],[39.65649,-4.06458],[39.65552,-4.06403],[39.65509,-4.06409],[39.65472,-4.06458],[39.6543,-4.06451],[39.65393,-4.06378],[39.65393,-4.06281],[39.65411,-4.0625],[39.65411,-4.06219],[39.6535,-4.0611],[39.65308,-4.06073],[39.65228,-4.06061],[39.65228,-4.0603],[39.65271,-4.05981],[39.65228,-4.05951],[39.65167,-4.05969],[39.65112,-4.05951],[39.65088,-4.05908],[39.6499,-4.05847],[39.64929,-4.05829],[39.64807,-4.05823],[39.64728,-4.05792],[39.64709,-4.0575],[39.64709,-4.05701],[39.64752,-4.05597],[39.64752,-4.0545],[39.64728,-4.05402],[39.64728,-4.05292],[39.64709,-4.05261],[39.64709,-4.05188],[39.64691,-4.05151],[39.64691,-4.05121],[39.64673,-4.05103],[39.64673,-4.05048],[39.64648,-4.05011],[39.64648,-4.04962],[39.6463,-4.04938],[39.64612,-4.04822],[39.64587,-4.04779],[39.64429,-4.04669],[39.64392,-4.04602],[39.64392,-4.04572],[39.64368,-4.04547],[39.64368,-4.0451],[39.64349,-4.04468],[39.64288,-4.0437],[39.64252,-4.04279],[39.64227,-4.04242],[39.64191,-4.04218],[39.6413,-4.04199],[39.64111,-4.04163],[39.64111,-4.04108]]]]}},{"type":"Feature","properties":{"code":"0030","name":"Majengo","constituency":"Mvita"},"geometry":{"type":"MultiPolygon","coordinates":[[[[39.67212,-4.05597],[39.67151,-4.05731],[39.67047,-4.0603],[39.66632,-4.0589],[39.66431,-4.0589],[39.66248,-4.05872],[39.6615,-4.05841],[39.65912,-4.05811],[39.65692,-4.05798],[39.65692,-4.05511],[39.66132,-4.05621],[39.66193,-4.05658],[39.66272,-4.0545],[39.65692,-4.05371],[39.65668,-4.05231],[39.6571,-4.05139],[39.6571,-4.04919],[39.6557,-4.04901],[39.65472,-4.04608],[39.65472,-4.04547],[39.65411,-4.04388],[39.65308,-4.04022],[39.65393,-4.03949],[39.65253,-4.03717],[39.65411,-4.03589],[39.66193,-4.04529],[39.66248,-4.04578],[39.66272,-4.0462],[39.66309,-4.04639],[39.6665,-4.0517],[39.66669,-4.05231],[39.66809,-4.05402],[39.67029,-4.05518],[39.6712,-4.05581],[39.67212,-4.05597]]]]}}]}