{"type":"FeatureCollection","features":[{"type":"Feature","properties":{"name":"Changamwe","wards":5,"label_lng":39.6141,"label_lat":-4.02467},"geometry":{"type":"Polygon","coordinates":[[[39.58352,-4.04054],[39.58413,-4.03914],[39.58492,-4.03804],[39.58535,-4.03682],[39.58553,-4.03492],[39.58614,-4.03303],[39.58614,-4.03242],[39.58632,-4.03169],[39.58631,-4.02999],[39.5924,-4.02619],[39.59306,-4.02681],[39.59354,-4.02705],[39.59473,-4.02654],[39.5951,-4.02612],[39.59557,-4.02512],[39.59563,-4.02422],[39.59603,-4.02311],[39.59786,-4.02152],[39.59823,-4.02102],[39.59908,-4.01603],[39.59978,-4.01414],[39.60177,-4.01494],[39.60208,-4.00867],[39.59978,-4.00759],[39.5998,-4.00521],[39.60261,-4.00515],[39.60585,-4.00638],[39.61492,-4.00609],[39.61739,-4.00613],[39.62622,-4.00799],[39.62902,-4.00922],[39.63032,-4.01015],[39.63229,-4.01234],[39.63296,-4.01342],[39.63319,-4.01417],[39.63351,-4.0207],[39.63325,-4.02235],[39.63215,-4.02628],[39.63221,-4.02759],[39.63533,-4.02806],[39.64024,-4.02818],[39.64213,-4.02882],[39.64363,-4.02889],[39.64588,-4.02986],[39.64867,-4.03011],[39.64947,-4.03045],[39.65067,-4.0312],[39.64874,-4.03396],[39.64791,-4.03489],[39.64728,-4.03529],[39.64551,-4.03525],[39.64328,-4.03425],[39.64217,-4.034],[39.64037,-4.03386],[39.63992,-4.03403],[39.63959,-4.03438],[39.63936,-4.03506],[39.63947,-4.037],[39.63978,-4.03806],[39.63928,-4.03822],[39.63928,-4.03882],[39.63892,-4.03992],[39.63733,-4.04059],[39.63489,-4.04071],[39.63428,-4.04089],[39.6319,-4.04089],[39.63129,-4.04102],[39.63092,-4.04059],[39.63013,-4.04059],[39.62909,-4.04163],[39.62848,-4.04199],[39.62732,-4.04309],[39.62567,-4.04388],[39.62512,-4.04401],[39.62451,-4.04388],[39.62433,-4.0434],[39.62372,-4.04321],[39.62311,-4.0434],[39.62231,-4.04321],[39.62152,-4.04321],[39.62091,-4.04358],[39.6203,-4.04321],[39.62047,-4.0423],[39.61969,-4.04169],[39.61749,-4.04071],[39.61511,-4.0401],[39.61432,-4.0401],[39.61091,-4.04071],[39.6103,-4.04102],[39.60773,-4.04181],[39.6045,-4.04199],[39.60382,-4.04178],[39.60339,-4.0422],[39.60274,-4.04231],[39.59993,-4.04182],[39.59169,-4.04182],[39.58852,-4.04292],[39.5873,-4.04353],[39.58553,-4.04353],[39.58449,-4.04304],[39.5837,-4.04243],[39.58352,-4.04054]]]}},{"type":"Feature","properties":{"name":"Jomvu","wards":3,"label_lng":39.5985,"label_lat":-3.98967},"geometry":{"type":"Polygon","coordinates":[[[39.56418,-4.01253],[39.56436,-4.01211],[39.56449,-4.01115],[39.56487,-4.01079],[39.56589,-4.01025],[39.56692,-4.00914],[39.56783,-4.00738],[39.56804,-4.00575],[39.56844,-4.00444],[39.56856,-4.00335],[39.56856,-4.00278],[39.56827,-4.00173],[39.56821,-4.00041],[39.56951,-3.99203],[39.56992,-3.99135],[39.57555,-3.98417],[39.57411,-3.98399],[39.57392,-3.98361],[39.57391,-3.98268],[39.57361,-3.98222],[39.57314,-3.98215],[39.5725,-3.98234],[39.56894,-3.97951],[39.5689,-3.97917],[39.56921,-3.97745],[39.56926,-3.97501],[39.57154,-3.97414],[39.57271,-3.97298],[39.57372,-3.97298],[39.57726,-3.97191],[39.58226,-3.97001],[39.5829,-3.96994],[39.58329,-3.96973],[39.58374,-3.96545],[39.59438,-3.95488],[39.59678,-3.95284],[39.59712,-3.95127],[39.59738,-3.95093],[39.59983,-3.94951],[39.60054,-3.94995],[39.60088,-3.95108],[39.60206,-3.95232],[39.60281,-3.95358],[39.60321,-3.95372],[39.60423,-3.95357],[39.60469,-3.95418],[39.60506,-3.95445],[39.60817,-3.95591],[39.60879,-3.95657],[39.60866,-3.95758],[39.60706,-3.9592],[39.60583,-3.96105],[39.60408,-3.96324],[39.60379,-3.96394],[39.60407,-3.96473],[39.60463,-3.96519],[39.60518,-3.96533],[39.60583,-3.96519],[39.60714,-3.96519],[39.60937,-3.96589],[39.61285,-3.96761],[39.61364,-3.96835],[39.6142,-3.96914],[39.61438,-3.96984],[39.61434,-3.97249],[39.61318,-3.97788],[39.6122,-3.97955],[39.61201,-3.9803],[39.6128,-3.98216],[39.61346,-3.98267],[39.6181,-3.98481],[39.62196,-3.98699],[39.62396,-3.98787],[39.62526,-3.9882],[39.6264,-3.98824],[39.62543,-3.99045],[39.62488,-3.99207],[39.62489,-3.99241],[39.62653,-3.98822],[39.62952,-3.98779],[39.63489,-3.98743],[39.63831,-3.98761],[39.64111,-3.9881],[39.64172,-3.9884],[39.64227,-3.98889],[39.64349,-3.99139],[39.64349,-3.9931],[39.64368,-3.9942],[39.64368,-3.99701],[39.64429,-3.99951],[39.64508,-4.00153],[39.64587,-4.00458],[39.64709,-4.00623],[39.64832,-4.0069],[39.65149,-4.00928],[39.6521,-4.00983],[39.65228,-4.01031],[39.65271,-4.0108],[39.65271,-4.01501],[39.65289,-4.01562],[39.65289,-4.01642],[39.6543,-4.02032],[39.65527,-4.0224],[39.65668,-4.0246],[39.65588,-4.0249],[39.65472,-4.02643],[39.65369,-4.02728],[39.6535,-4.02789],[39.6507,-4.03101],[39.64893,-4.03009],[39.64587,-4.02979],[39.64368,-4.02881],[39.64227,-4.02881],[39.64111,-4.02838],[39.63953,-4.02808],[39.63507,-4.02802],[39.63232,-4.0274],[39.63208,-4.02679],[39.63208,-4.02643],[39.63287,-4.02429],[39.63348,-4.02142],[39.6333,-4.0141],[39.63287,-4.013],[39.63031,-4.01001],[39.62909,-4.00922],[39.6275,-4.00842],[39.62567,-4.00781],[39.62268,-4.0072],[39.62048,-4.00659],[39.61768,-4.0061],[39.61292,-4.0061],[39.60687,-4.00641],[39.60559,-4.00631],[39.60251,-4.00515],[39.59982,-4.00523],[39.59978,-4.00759],[39.60206,-4.00865],[39.60175,-4.01494],[39.59975,-4.01415],[39.59906,-4.01602],[39.59821,-4.02101],[39.59784,-4.02151],[39.59601,-4.0231],[39.59561,-4.02421],[39.59555,-4.02511],[39.59508,-4.02611],[39.59471,-4.02652],[39.59352,-4.02704],[39.59304,-4.02679],[39.59237,-4.02619],[39.58621,-4.03003],[39.58621,-4.0293],[39.58609,-4.02899],[39.58569,-4.02841],[39.58475,-4.02774],[39.58443,-4.02666],[39.58353,-4.02572],[39.58191,-4.02546],[39.58074,-4.0248],[39.58005,-4.02458],[39.57918,-4.02451],[39.5769,-4.02471],[39.57499,-4.02395],[39.57396,-4.02375],[39.57302,-4.02316],[39.57144,-4.0214],[39.57058,-4.02069],[39.56995,-4.02038],[39.56846,-4.02019],[39.56802,-4.01996],[39.56678,-4.01821],[39.56668,-4.01771],[39.5667,-4.01607],[39.56646,-4.01526],[39.56588,-4.01429],[39.56461,-4.01341],[39.56418,-4.01253]],[[39.62459,-3.99466],[39.62324,-3.99624],[39.62174,-3.99736],[39.62292,-3.9967],[39.62433,-3.99518],[39.62488,-3.99438],[39.62487,-3.99375],[39.62459,-3.99466]],[[39.62012,-3.99792],[39.62052,-3.99776],[39.61992,-3.99793],[39.62012,-3.99792]],[[39.6181,-3.99823],[39.61836,-3.99815],[39.61775,-3.99822],[39.6181,-3.99823]],[[39.61364,-3.99913],[39.61351,-3.99928],[39.61352,-3.99931],[39.61364,-3.99913]],[[39.61328,-3.99983],[39.61246,-4.00054],[39.61327,-4.00012],[39.61328,-3.99983]],[[39.60714,-4.00267],[39.60713,-4.0028],[39.60737,-4.00248],[39.60714,-4.00267]],[[39.60686,-4.00626],[39.60712,-4.00531],[39.60703,-4.00468],[39.60701,-4.0047],[39.60686,-4.00626]],[[39.60687,-4.00345],[39.60678,-4.00357],[39.60685,-4.00383],[39.60687,-4.00381],[39.60687,-4.00345]],[[39.58551,-4.00675],[39.58642,-4.0067],[39.58531,-4.00671],[39.58551,-4.00675]],[[39.58089,-4.00505],[39.57961,-4.00418],[39.57873,-4.00372],[39.57874,-4.00375],[39.58089,-4.00505]],[[39.57432,-4.00015],[39.5744,-4.00033],[39.57434,-4.00013],[39.57432,-4.00015]]]}},{"type":"Feature","properties":{"name":"Kisauni","wards":7,"label_lng":39.69057,"label_lat":-3.97968},"geometry":{"type":"MultiPolygon","coordinates":[[[[39.63971,-3.9295],[39.63989,-3.92902],[39.64069,-3.92828],[39.6413,-3.92792],[39.64172,-3.92731],[39.64209,-3.92603],[39.64252,-3.92529],[39.64368,-3.92462],[39.64807,-3.9234],[39.65009,-3.92297],[39.6557,-3.92212],[39.65869,-3.92133],[39.6637,-3.91931],[39.66449,-3.91913],[39.66492,-3.91888],[39.66632,-3.91858],[39.66852,-3.91827],[39.67047,-3.9187],[39.67188,-3.91962],[39.67273,-3.92078],[39.67407,-3.92133],[39.67529,-3.92151],[39.6761,-3.92242],[39.67651,-3.92249],[39.67767,-3.92181],[39.67871,-3.92157],[39.68048,-3.922],[39.68213,-3.92273],[39.68512,-3.9234],[39.68628,-3.92291],[39.68811,-3.92322],[39.6889,-3.92352],[39.6897,-3.92358],[39.69031,-3.92328],[39.69067,-3.92273],[39.69128,-3.92279],[39.69171,-3.92249],[39.6923,-3.9226],[39.69208,-3.922],[39.69208,-3.92151],[39.69232,-3.92108],[39.69232,-3.92072],[39.69373,-3.92059],[39.69427,-3.92029],[39.6955,-3.91998],[39.6969,-3.91998],[39.69928,-3.92047],[39.69989,-3.9209],[39.69971,-3.92151],[39.69971,-3.9223],[39.6991,-3.9245],[39.6991,-3.92511],[39.69849,-3.92731],[39.6983,-3.92853],[39.69788,-3.92969],[39.69788,-3.93042],[39.69769,-3.93091],[39.69751,-3.9328],[39.69733,-3.93347],[39.69733,-3.93433],[39.69751,-3.93469],[39.69769,-3.9361],[39.69812,-3.93652],[39.6983,-3.93707],[39.69989,-3.9397],[39.7005,-3.94128],[39.70111,-3.94208],[39.70129,-3.94263],[39.7019,-3.94299],[39.7027,-3.94373],[39.70428,-3.94421],[39.7049,-3.94427],[39.70673,-3.94501],[39.70868,-3.94629],[39.71008,-3.9469],[39.71069,-3.94733],[39.71281,-3.94952],[39.71448,-3.95048],[39.71671,-3.95114],[39.72388,-3.95245],[39.72633,-3.95254],[39.73023,-3.95241],[39.73102,-3.95223],[39.73154,-3.95193],[39.73338,-3.94961],[39.73443,-3.94865],[39.73478,-3.94843],[39.73579,-3.94843],[39.73613,-3.94869],[39.73524,-3.9498],[39.73505,-3.95081],[39.73529,-3.95001],[39.7359,-3.9494],[39.73633,-3.94983],[39.7367,-3.9505],[39.73767,-3.95099],[39.73907,-3.95111],[39.73993,-3.95148],[39.74048,-3.95312],[39.74091,-3.95361],[39.74152,-3.9541],[39.7431,-3.95471],[39.7439,-3.95532],[39.74487,-3.95569],[39.74689,-3.95581],[39.74969,-3.95673],[39.75049,-3.95721],[39.75153,-3.9574],[39.75372,-3.9574],[39.75427,-3.95752],[39.75549,-3.95728],[39.75751,-3.9566],[39.75928,-3.95642],[39.75989,-3.95673],[39.76233,-3.95898],[39.76251,-3.95978],[39.76208,-3.96112],[39.76147,-3.96179],[39.76007,-3.96381],[39.75873,-3.9649],[39.75732,-3.96582],[39.75488,-3.9671],[39.7511,-3.9718],[39.75049,-3.97241],[39.75031,-3.9729],[39.74847,-3.97522],[39.74768,-3.97571],[39.74609,-3.9776],[39.7453,-3.97821],[39.74512,-3.9787],[39.74371,-3.97998],[39.74188,-3.98212],[39.74072,-3.98389],[39.73993,-3.9848],[39.73889,-3.98547],[39.73688,-3.98779],[39.73669,-3.98828],[39.73352,-3.99292],[39.73187,-3.995],[39.73108,-3.99628],[39.73108,-3.99689],[39.73132,-3.99768],[39.73273,-3.99921],[39.73291,-3.99982],[39.73291,-4.00061],[39.73273,-4.0014],[39.73132,-4.00311],[39.72888,-4.00421],[39.72809,-4.005],[39.72729,-4.0061],[39.72308,-4.005],[39.72248,-4.00459],[39.72211,-4.00488],[39.72009,-4.00427],[39.71851,-4.00342],[39.71613,-4.00269],[39.71472,-4.00171],[39.71228,-4.00189],[39.71069,-4.00153],[39.70892,-4.00031],[39.70831,-4.00012],[39.70569,-3.99988],[39.6983,-3.99982],[39.69839,-3.99932],[39.69746,-4.00065],[39.69652,-4.00265],[39.69481,-4.00463],[39.6939,-4.00623],[39.69365,-4.00676],[39.69239,-4.01131],[39.6902,-4.0146],[39.68937,-4.01609],[39.68735,-4.02092],[39.68556,-4.02471],[39.68266,-4.02908],[39.68255,-4.03075],[39.68163,-4.0326],[39.68148,-4.03324],[39.68156,-4.03443],[39.68102,-4.0349],[39.67899,-4.03745],[39.6778,-4.03846],[39.67539,-4.03968],[39.67138,-4.04058],[39.67134,-4.04019],[39.67203,-4.03996],[39.67544,-4.03809],[39.67605,-4.03758],[39.67663,-4.03629],[39.67692,-4.036],[39.6767,-4.03553],[39.67666,-4.03503],[39.67695,-4.03466],[39.67663,-4.03309],[39.67677,-4.03248],[39.6767,-4.03186],[39.67577,-4.02949],[39.67526,-4.02906],[39.67472,-4.02906],[39.67403,-4.02874],[39.67325,-4.02892],[39.67229,-4.02938],[39.67185,-4.03039],[39.67134,-4.03035],[39.67109,-4.02974],[39.67102,-4.02888],[39.6712,-4.0269],[39.67106,-4.02622],[39.67073,-4.02546],[39.66994,-4.02428],[39.66983,-4.02323],[39.67019,-4.02273],[39.67113,-4.02237],[39.674,-4.02183],[39.67469,-4.0214],[39.67483,-4.0209],[39.67458,-4.01784],[39.67433,-4.01752],[39.6739,-4.01752],[39.67343,-4.01762],[39.67314,-4.01809],[39.67303,-4.01849],[39.67336,-4.0191],[39.6735,-4.01975],[39.67339,-4.02025],[39.6731,-4.02057],[39.67264,-4.02072],[39.67026,-4.02021],[39.66911,-4.02036],[39.66814,-4.0209],[39.66714,-4.02183],[39.66634,-4.02219],[39.66559,-4.02223],[39.66458,-4.02205],[39.6635,-4.02169],[39.66163,-4.02057],[39.66127,-4.01967],[39.66106,-4.01644],[39.66088,-4.01561],[39.66059,-4.01486],[39.65998,-4.01432],[39.65962,-4.01363],[39.65962,-4.0127],[39.65994,-4.01194],[39.66045,-4.0113],[39.66117,-4.01108],[39.66239,-4.01137],[39.6643,-4.01148],[39.66555,-4.0109],[39.66764,-4.00946],[39.66947,-4.00802],[39.67037,-4.00691],[39.67106,-4.00587],[39.67149,-4.00468],[39.67131,-4.00339],[39.67012,-4.00123],[39.66926,-4.00022],[39.66674,-3.99853],[39.66609,-3.99763],[39.66588,-3.99673],[39.66623,-3.99508],[39.66577,-3.99468],[39.66494,-3.9949],[39.66451,-3.99429],[39.66433,-3.99378],[39.66426,-3.99249],[39.66519,-3.99109],[39.66573,-3.99084],[39.66638,-3.99073],[39.66796,-3.99087],[39.66865,-3.99062],[39.66908,-3.99008],[39.66904,-3.9894],[39.66872,-3.98897],[39.66753,-3.98796],[39.668,-3.98791],[39.66748,-3.98779],[39.66711,-3.9873],[39.66589,-3.98407],[39.66589,-3.9823],[39.66632,-3.98077],[39.66632,-3.9787],[39.66571,-3.97839],[39.66528,-3.97858],[39.66492,-3.979],[39.66449,-3.98041],[39.66388,-3.98071],[39.66333,-3.98041],[39.66333,-3.97937],[39.6637,-3.97839],[39.6637,-3.9776],[39.66333,-3.97662],[39.66193,-3.97589],[39.66107,-3.97589],[39.66028,-3.9765],[39.65973,-3.9762],[39.65887,-3.97498],[39.65833,-3.9729],[39.65833,-3.97223],[39.65887,-3.97021],[39.65948,-3.96912],[39.6601,-3.96759],[39.66028,-3.96729],[39.66193,-3.96588],[39.66229,-3.96539],[39.66229,-3.96503],[39.66248,-3.96472],[39.66211,-3.96393],[39.6615,-3.9635],[39.65912,-3.9632],[39.65851,-3.96301],[39.65808,-3.96252],[39.65808,-3.96191],[39.65887,-3.95972],[39.65948,-3.95892],[39.65948,-3.95679],[39.6601,-3.95538],[39.66132,-3.95398],[39.6615,-3.95349],[39.6615,-3.95288],[39.66211,-3.95117],[39.66211,-3.94983],[39.66071,-3.94678],[39.65973,-3.9458],[39.65887,-3.94537],[39.65692,-3.94489],[39.65649,-3.94458],[39.65588,-3.94373],[39.65527,-3.94379],[39.6551,-3.94421],[39.6557,-3.94458],[39.65571,-3.94537],[39.65649,-3.94568],[39.65747,-3.94568],[39.65808,-3.94592],[39.65851,-3.94629],[39.65851,-3.94672],[39.65833,-3.9472],[39.65887,-3.9483],[39.6593,-3.94879],[39.65991,-3.9502],[39.66028,-3.9516],[39.66028,-3.953],[39.65887,-3.95332],[39.65833,-3.9541],[39.65833,-3.95508],[39.6579,-3.95587],[39.65692,-3.95648],[39.65649,-3.95721],[39.65552,-3.95728],[39.65472,-3.95709],[39.65308,-3.95752],[39.65253,-3.95752],[39.6521,-3.95728],[39.65167,-3.95679],[39.65149,-3.9549],[39.65112,-3.95422],[39.65051,-3.95367],[39.64893,-3.95319],[39.64868,-3.95288],[39.64789,-3.95251],[39.64752,-3.95203],[39.6463,-3.95142],[39.64612,-3.95111],[39.64612,-3.95032],[39.64648,-3.94928],[39.64771,-3.94861],[39.64911,-3.94739],[39.6499,-3.94708],[39.65088,-3.9469],[39.65167,-3.94611],[39.65228,-3.94592],[39.65289,-3.94611],[39.65349,-3.94611],[39.65369,-3.94562],[39.65369,-3.94501],[39.6535,-3.9444],[39.65308,-3.94374],[39.65228,-3.94397],[39.65009,-3.94379],[39.64972,-3.94342],[39.65033,-3.94263],[39.65033,-3.94208],[39.65009,-3.94159],[39.65009,-3.94092],[39.64972,-3.94061],[39.6485,-3.94049],[39.6485,-3.94],[39.6499,-3.93903],[39.65009,-3.93848],[39.6507,-3.93817],[39.65088,-3.93763],[39.65051,-3.93689],[39.65009,-3.93652],[39.6499,-3.93597],[39.6499,-3.9353],[39.64929,-3.935],[39.64868,-3.93439],[39.64807,-3.93433],[39.64673,-3.93549],[39.64508,-3.93451],[39.64508,-3.93348],[39.64429,-3.93329],[39.64368,-3.93268],[39.64349,-3.93127],[39.64288,-3.93079],[39.6427,-3.9303],[39.64191,-3.92969],[39.64093,-3.93011],[39.6405,-3.92969],[39.63989,-3.92981],[39.63971,-3.9295]],[[39.73455,-3.95328],[39.73194,-3.95431],[39.73193,-3.95433],[39.7349,-3.95331],[39.73468,-3.95288],[39.73492,-3.95203],[39.7349,-3.9516],[39.73455,-3.95328]],[[39.73063,-3.95482],[39.72992,-3.95564],[39.73082,-3.95476],[39.73063,-3.95482]],[[39.72831,-3.95873],[39.72813,-3.95891],[39.72852,-3.95862],[39.72913,-3.95673],[39.72961,-3.95593],[39.72915,-3.95641],[39.72831,-3.95873]],[[39.72024,-3.96627],[39.72029,-3.96659],[39.72119,-3.96506],[39.72058,-3.96567],[39.72024,-3.96627]],[[39.72034,-3.96881],[39.72052,-3.96851],[39.72028,-3.96674],[39.72026,-3.96676],[39.72034,-3.96881]],[[39.7191,-3.97097],[39.71991,-3.96979],[39.72019,-3.96917],[39.72016,-3.96918],[39.7191,-3.97097]],[[39.71884,-3.97233],[39.71781,-3.97421],[39.71782,-3.97424],[39.71869,-3.9729],[39.71912,-3.97162],[39.7191,-3.97105],[39.71884,-3.97233]],[[39.71373,-3.98164],[39.71552,-3.9787],[39.71662,-3.97643],[39.71659,-3.97644],[39.71373,-3.98164]],[[39.7108,-3.98661],[39.71112,-3.98639],[39.7117,-3.98514],[39.71167,-3.98515],[39.7108,-3.98661]],[[39.70808,-3.98895],[39.70553,-3.99119],[39.7081,-3.98895],[39.70808,-3.98895]],[[39.70545,-3.9489],[39.70573,-3.94887],[39.70469,-3.94858],[39.70545,-3.9489]],[[39.70302,-3.99468],[39.70392,-3.99359],[39.70406,-3.99324],[39.70403,-3.99325],[39.70302,-3.99468]],[[39.70288,-3.94897],[39.70288,-3.94908],[39.70301,-3.94888],[39.70288,-3.94897]],[[39.70251,-3.9953],[39.70268,-3.99506],[39.7021,-3.99558],[39.70251,-3.9953]],[[39.70132,-3.95202],[39.70133,-3.95215],[39.70134,-3.95201],[39.70132,-3.95202]],[[39.69904,-3.99819],[39.69887,-3.99867],[39.70063,-3.99686],[39.69904,-3.99819]],[[39.69989,-3.95392],[39.69979,-3.95421],[39.70039,-3.95355],[39.69989,-3.95392]],[[39.69888,-3.95516],[39.69918,-3.95478],[39.69876,-3.95522],[39.69888,-3.95516]],[[39.69899,-3.99792],[39.69901,-3.99783],[39.69883,-3.99769],[39.69883,-3.99772],[39.69899,-3.99792]],[[39.69688,-3.96969],[39.69718,-3.96957],[39.69727,-3.96947],[39.69724,-3.96946],[39.69688,-3.96969]],[[39.69629,-3.9571],[39.69633,-3.95758],[39.69636,-3.95703],[39.69629,-3.9571]],[[39.6861,-3.97119],[39.68602,-3.97125],[39.68645,-3.97121],[39.6861,-3.97119]],[[39.68313,-3.98217],[39.68358,-3.98185],[39.68358,-3.98183],[39.68313,-3.98217]],[[39.68337,-4.0147],[39.68342,-4.01452],[39.68339,-4.01451],[39.68337,-4.0147]],[[39.68311,-3.97168],[39.68298,-3.97174],[39.68339,-3.97174],[39.68311,-3.97168]],[[39.68302,-4.01155],[39.68324,-4.01315],[39.68304,-4.01153],[39.68302,-4.01155]],[[39.68224,-3.98734],[39.68208,-3.98631],[39.68206,-3.9863],[39.68224,-3.98734]],[[39.67735,-4.0376],[39.67727,-4.03782],[39.67768,-4.03725],[39.67735,-4.0376]],[[39.67667,-4.02855],[39.67714,-4.02885],[39.67664,-4.02845],[39.67667,-4.02855]],[[39.67648,-4.03861],[39.6767,-4.03856],[39.67675,-4.03849],[39.67673,-4.03848],[39.67648,-4.03861]],[[39.67325,-3.98779],[39.67468,-3.98834],[39.67585,-3.9892],[39.67643,-3.98945],[39.67653,-3.98935],[39.67468,-3.98828],[39.67325,-3.98779]],[[39.67647,-4.02771],[39.67653,-4.02809],[39.67649,-4.02769],[39.67647,-4.02771]],[[39.67637,-4.02499],[39.67639,-4.02504],[39.6764,-4.025],[39.67637,-4.02499]],[[39.67511,-4.03916],[39.67505,-4.03921],[39.67512,-4.03918],[39.67511,-4.03916]],[[39.6723,-3.98767],[39.67034,-3.98783],[39.67308,-3.98778],[39.6723,-3.98767]]],[[[39.60809,-3.95898],[39.60828,-3.95862],[39.60889,-3.95819],[39.60931,-3.95892],[39.60968,-3.95929],[39.61029,-3.95941],[39.61188,-3.95862],[39.61267,-3.9577],[39.6131,-3.95758],[39.61371,-3.95782],[39.6145,-3.95789],[39.61749,-3.95789],[39.61829,-3.9577],[39.61908,-3.9574],[39.61908,-3.95679],[39.61951,-3.95587],[39.61987,-3.95563],[39.62091,-3.95532],[39.6217,-3.95569],[39.6217,-3.9566],[39.62207,-3.95709],[39.62292,-3.9577],[39.62292,-3.95813],[39.62268,-3.95831],[39.6217,-3.9599],[39.6217,-3.96033],[39.62292,-3.96112],[39.62372,-3.96118],[39.6261,-3.96179],[39.62628,-3.9621],[39.62592,-3.96271],[39.6261,-3.9632],[39.62671,-3.96338],[39.6275,-3.96332],[39.6277,-3.96393],[39.6283,-3.96381],[39.62848,-3.9635],[39.62927,-3.96301],[39.63568,-3.95959],[39.64032,-3.95758],[39.64209,-3.95728],[39.64368,-3.95728],[39.64569,-3.9585],[39.64648,-3.9588],[39.64728,-3.96008],[39.64789,-3.96051],[39.64929,-3.96039],[39.65051,-3.96069],[39.65253,-3.96021],[39.65308,-3.96057],[39.65333,-3.96118],[39.65472,-3.96143],[39.65509,-3.96179],[39.65527,-3.96228],[39.65491,-3.96301],[39.65448,-3.96338],[39.65448,-3.9646],[39.65509,-3.96582],[39.6557,-3.96661],[39.65588,-3.96729],[39.6557,-3.9682],[39.65491,-3.96863],[39.65472,-3.96918],[39.65472,-3.96979],[39.65527,-3.9715],[39.65527,-3.9729],[39.65509,-3.97351],[39.65509,-3.97449],[39.65588,-3.9765],[39.6571,-3.97858],[39.65771,-3.9801],[39.65808,-3.98059],[39.65808,-3.9818],[39.65833,-3.98212],[39.65833,-3.98248],[39.65912,-3.98389],[39.6601,-3.9848],[39.66071,-3.9859],[39.66089,-3.98657],[39.66168,-3.98828],[39.66168,-3.98877],[39.66193,-3.98907],[39.66211,-3.98969],[39.66211,-3.9903],[39.66168,-3.9906],[39.66052,-3.99079],[39.66052,-3.99121],[39.66089,-3.99237],[39.66089,-3.99298],[39.66071,-3.99347],[39.65991,-3.99371],[39.65948,-3.99359],[39.65912,-3.99298],[39.65869,-3.9917],[39.65833,-3.99121],[39.65692,-3.99017],[39.65393,-3.98877],[39.65009,-3.98798],[39.6499,-3.98761],[39.64929,-3.98712],[39.6485,-3.98682],[39.64789,-3.98639],[39.64771,-3.9859],[39.64771,-3.9834],[39.64752,-3.98291],[39.64752,-3.9823],[39.64789,-3.98059],[39.64752,-3.97931],[39.64709,-3.97852],[39.64532,-3.97711],[39.6441,-3.9765],[39.64331,-3.9765],[39.64252,-3.97693],[39.64172,-3.97699],[39.64111,-3.97681],[39.64069,-3.97638],[39.64008,-3.9754],[39.63928,-3.97522],[39.63849,-3.97522],[39.63788,-3.9754],[39.63751,-3.97577],[39.6377,-3.97662],[39.6377,-3.97742],[39.63647,-3.97809],[39.63568,-3.97827],[39.63507,-3.97858],[39.63391,-3.98041],[39.6333,-3.98071],[39.63232,-3.98077],[39.6311,-3.98169],[39.63031,-3.98212],[39.62891,-3.98218],[39.6283,-3.98212],[39.62708,-3.98163],[39.62653,-3.9812],[39.62627,-3.98041],[39.62567,-3.97998],[39.62433,-3.97961],[39.62292,-3.97827],[39.62152,-3.97742],[39.6203,-3.97699],[39.6181,-3.97681],[39.6167,-3.97601],[39.61572,-3.97491],[39.61572,-3.97443],[39.61548,-3.97388],[39.61548,-3.97302],[39.61493,-3.97089],[39.61407,-3.96851],[39.61407,-3.9679],[39.61432,-3.96741],[39.61511,-3.96741],[39.61572,-3.9671],[39.61713,-3.9657],[39.61749,-3.96448],[39.61853,-3.96338],[39.61871,-3.96271],[39.61908,-3.9621],[39.61951,-3.96179],[39.62048,-3.96033],[39.62048,-3.95972],[39.6203,-3.95924],[39.61987,-3.95911],[39.61768,-3.95911],[39.61688,-3.95941],[39.61591,-3.96057],[39.61548,-3.96179],[39.61548,-3.9624],[39.6153,-3.96289],[39.6145,-3.96307],[39.61292,-3.96259],[39.61169,-3.9624],[39.61133,-3.96191],[39.61108,-3.96112],[39.61072,-3.96051],[39.61011,-3.96021],[39.60889,-3.96002],[39.60828,-3.95947],[39.60809,-3.95898]]]]}},{"type":"Feature","properties":{"name":"Likoni","wards":5,"label_lng":39.64476,"label_lat":-4.09984},"geometry":{"type":"Polygon","coordinates":[[[39.5827,-4.11603],[39.5835,-4.11609],[39.58508,-4.11578],[39.58569,-4.11499],[39.58569,-4.11438],[39.58612,-4.112],[39.5863,-4.11157],[39.58789,-4.11108],[39.5885,-4.11047],[39.58893,-4.1098],[39.58948,-4.10809],[39.58948,-4.10773],[39.58929,-4.10718],[39.58868,-4.10687],[39.58832,-4.10638],[39.58893,-4.10602],[39.58948,-4.1059],[39.59088,-4.10632],[39.59149,-4.10608],[39.59253,-4.10553],[39.5929,-4.10431],[39.59271,-4.1037],[39.59271,-4.10309],[39.5907,-4.1015],[39.59009,-4.10077],[39.58911,-4.09943],[39.58893,-4.09802],[39.58807,-4.09723],[39.58807,-4.09601],[39.5885,-4.09539],[39.58832,-4.0929],[39.58807,-4.0921],[39.58649,-4.09088],[39.58551,-4.09027],[39.5849,-4.09009],[39.58447,-4.0896],[39.58429,-4.08911],[39.58429,-4.0874],[39.5849,-4.08582],[39.58569,-4.0849],[39.58551,-4.0838],[39.58649,-4.08191],[39.58728,-4.07977],[39.58789,-4.07953],[39.58807,-4.0791],[39.58807,-4.078],[39.58771,-4.07758],[39.58673,-4.0769],[39.58649,-4.07648],[39.5863,-4.07507],[39.58673,-4.07483],[39.58789,-4.07483],[39.58911,-4.07458],[39.59027,-4.0741],[39.59088,-4.07361],[39.59149,-4.073],[39.59192,-4.07233],[39.59229,-4.07111],[39.59229,-4.0705],[39.59271,-4.06982],[39.5929,-4.06909],[39.59412,-4.06769],[39.59473,-4.06732],[39.59509,-4.06677],[39.59508,-4.06592],[39.5929,-4.06549],[39.59253,-4.06512],[39.5929,-4.06372],[39.59192,-4.06293],[39.59253,-4.0625],[39.59473,-4.06281],[39.59747,-4.06281],[39.59808,-4.06299],[39.59911,-4.06299],[39.59949,-4.06268],[39.60107,-4.06232],[39.6015,-4.06158],[39.6015,-4.06122],[39.60211,-4.06122],[39.60272,-4.06152],[39.60291,-4.06189],[39.60327,-4.06219],[39.60449,-4.06281],[39.6051,-4.06293],[39.60669,-4.06238],[39.60712,-4.06207],[39.6073,-4.06171],[39.60712,-4.06122],[39.60712,-4.06079],[39.60791,-4.06091],[39.60852,-4.06122],[39.60913,-4.06128],[39.61029,-4.06189],[39.61047,-4.06219],[39.61169,-4.06262],[39.61212,-4.06348],[39.61249,-4.06378],[39.61293,-4.06458],[39.61353,-4.0647],[39.6145,-4.06458],[39.61548,-4.0639],[39.61591,-4.06329],[39.61652,-4.06281],[39.61768,-4.06281],[39.61871,-4.06299],[39.61988,-4.06372],[39.62109,-4.06342],[39.62128,-4.06293],[39.62128,-4.0625],[39.62109,-4.06207],[39.61969,-4.06091],[39.61853,-4.05969],[39.61713,-4.05939],[39.61652,-4.05939],[39.61609,-4.05908],[39.61713,-4.05829],[39.61853,-4.0578],[39.61987,-4.05762],[39.62048,-4.05768],[39.62207,-4.05829],[39.62372,-4.05933],[39.62433,-4.05957],[39.62469,-4.06012],[39.62628,-4.06091],[39.6283,-4.0614],[39.62927,-4.0614],[39.63013,-4.06122],[39.63269,-4.05908],[39.63409,-4.05823],[39.63672,-4.05701],[39.63708,-4.0567],[39.63733,-4.05627],[39.63751,-4.05573],[39.63751,-4.05432],[39.63733,-4.05371],[39.63611,-4.05182],[39.63611,-4.05109],[39.63647,-4.0498],[39.63672,-4.04938],[39.63708,-4.047],[39.6377,-4.04669],[39.63812,-4.04718],[39.63849,-4.04901],[39.63849,-4.052],[39.63867,-4.0531],[39.63892,-4.05359],[39.6391,-4.0556],[39.63971,-4.05627],[39.63989,-4.05682],[39.64032,-4.05731],[39.6413,-4.06012],[39.6413,-4.06061],[39.64191,-4.06207],[39.64172,-4.06268],[39.6413,-4.06311],[39.6413,-4.06458],[39.64111,-4.06513],[39.64252,-4.0683],[39.64313,-4.06897],[39.64392,-4.06927],[39.6441,-4.06982],[39.64471,-4.0708],[39.64508,-4.07111],[39.64648,-4.07178],[39.64673,-4.0722],[39.64868,-4.07349],[39.64868,-4.0741],[39.64893,-4.07458],[39.64893,-4.07532],[39.64691,-4.07569],[39.6463,-4.07727],[39.64587,-4.078],[39.64587,-4.07928],[39.64551,-4.08032],[39.64508,-4.08069],[39.6443,-4.08177],[39.64344,-4.08497],[39.64302,-4.08544],[39.64338,-4.08553],[39.6436,-4.08536],[39.64391,-4.08447],[39.64452,-4.08387],[39.64459,-4.08152],[39.64579,-4.08102],[39.64609,-4.08071],[39.6465,-4.07955],[39.64744,-4.07918],[39.64799,-4.0788],[39.6481,-4.07767],[39.64904,-4.07635],[39.64928,-4.0756],[39.64975,-4.07491],[39.65013,-4.07294],[39.65121,-4.07268],[39.65211,-4.07226],[39.65248,-4.07225],[39.65331,-4.07261],[39.65498,-4.07465],[39.65665,-4.07597],[39.65723,-4.07686],[39.65814,-4.0776],[39.65913,-4.07866],[39.65981,-4.07915],[39.66382,-4.08041],[39.66555,-4.08075],[39.66805,-4.08056],[39.67019,-4.08095],[39.67241,-4.08089],[39.67304,-4.08099],[39.67405,-4.0815],[39.67443,-4.08213],[39.67419,-4.08501],[39.67331,-4.08684],[39.67348,-4.08712],[39.67433,-4.08765],[39.67447,-4.08792],[39.67404,-4.09186],[39.67184,-4.09695],[39.67009,-4.10026],[39.669,-4.10178],[39.66828,-4.10312],[39.66545,-4.10758],[39.66503,-4.10805],[39.66454,-4.10906],[39.66328,-4.1103],[39.66296,-4.11099],[39.66309,-4.11102],[39.66309,-4.11139],[39.66272,-4.11261],[39.66272,-4.1131],[39.66229,-4.11432],[39.66211,-4.11639],[39.66168,-4.1178],[39.66132,-4.1181],[39.65851,-4.11938],[39.65771,-4.12],[39.65649,-4.12372],[39.6557,-4.12567],[39.65491,-4.12659],[39.65448,-4.12732],[39.65411,-4.12878],[39.65411,-4.12939],[39.65289,-4.13263],[39.65253,-4.13312],[39.65253,-4.13361],[39.65228,-4.1344],[39.65149,-4.13617],[39.65149,-4.13721],[39.65131,-4.13782],[39.65088,-4.13843],[39.65088,-4.13898],[39.65009,-4.14001],[39.65009,-4.14062],[39.64789,-4.14331],[39.64771,-4.1441],[39.64728,-4.14471],[39.64673,-4.14618],[39.64612,-4.1488],[39.64569,-4.14978],[39.64508,-4.15039],[39.64313,-4.15118],[39.64252,-4.1524],[39.63251,-4.14612],[39.62628,-4.1416],[39.62988,-4.13678],[39.62988,-4.13599],[39.63092,-4.13379],[39.63092,-4.13287],[39.63129,-4.1319],[39.63129,-4.1311],[39.63153,-4.13031],[39.63153,-4.12921],[39.63171,-4.1286],[39.63171,-4.1272],[39.63208,-4.12598],[39.63208,-4.12543],[39.63251,-4.12451],[39.63348,-4.12341],[39.63593,-4.12201],[39.63672,-4.122],[39.63733,-4.12109],[39.63788,-4.11932],[39.63788,-4.1183],[39.63507,-4.11823],[39.63348,-4.11792],[39.63208,-4.11652],[39.6311,-4.11359],[39.62927,-4.11047],[39.62848,-4.1098],[39.62708,-4.10809],[39.61212,-4.09241],[39.6137,-4.09132],[39.61353,-4.09082],[39.61292,-4.09058],[39.6123,-4.09058],[39.61151,-4.091],[39.61011,-4.09229],[39.6083,-4.08728],[39.60791,-4.08759],[39.60712,-4.08759],[39.60651,-4.0879],[39.60687,-4.08972],[39.60687,-4.09027],[39.60651,-4.09137],[39.60651,-4.09399],[39.60449,-4.09601],[39.6037,-4.09637],[39.60193,-4.0965],[39.60132,-4.09668],[39.60089,-4.09698],[39.59851,-4.10028],[39.59833,-4.10102],[39.59949,-4.10278],[39.59991,-4.10321],[39.6001,-4.1037],[39.6001,-4.10797],[39.59949,-4.10962],[39.59808,-4.11108],[39.59772,-4.11169],[39.59711,-4.11218],[39.59668,-4.11298],[39.59589,-4.11371],[39.59192,-4.11371],[39.58911,-4.11591],[39.58771,-4.11658],[39.58728,-4.11731],[39.5871,-4.11792],[39.58673,-4.11829],[39.58612,-4.11841],[39.58551,-4.11829],[39.58411,-4.11737],[39.5827,-4.11603]],[[39.66016,-4.11059],[39.65895,-4.11106],[39.66028,-4.11065],[39.66016,-4.11059]],[[39.65224,-4.0837],[39.65225,-4.08381],[39.65231,-4.08363],[39.65224,-4.0837]],[[39.64508,-4.10937],[39.64513,-4.10932],[39.64504,-4.10933],[39.64508,-4.10937]],[[39.64368,-4.10901],[39.64393,-4.10901],[39.64273,-4.10855],[39.64368,-4.10901]],[[39.64224,-4.09748],[39.64326,-4.09793],[39.64223,-4.09746],[39.64224,-4.09748]],[[39.64316,-4.08685],[39.64315,-4.08677],[39.64303,-4.08691],[39.64316,-4.08685]],[[39.64263,-4.08843],[39.64259,-4.08829],[39.64227,-4.08857],[39.64263,-4.08843]],[[39.64178,-4.08878],[39.64189,-4.0887],[39.64125,-4.08876],[39.64178,-4.08878]],[[39.63883,-4.09268],[39.63882,-4.09263],[39.6388,-4.09267],[39.63883,-4.09268]],[[39.63795,-4.09381],[39.63792,-4.09389],[39.63797,-4.09382],[39.63795,-4.09381]],[[39.63692,-4.09353],[39.63723,-4.09391],[39.63763,-4.09405],[39.63789,-4.0939],[39.63733,-4.09387],[39.63692,-4.09353]],[[39.63568,-4.0863],[39.63568,-4.08798],[39.6357,-4.088],[39.63583,-4.08581],[39.63568,-4.0863]],[[39.63528,-4.09392],[39.63548,-4.09379],[39.63512,-4.09339],[39.63511,-4.09342],[39.63528,-4.09392]],[[39.62972,-4.08113],[39.63007,-4.08138],[39.63009,-4.08137],[39.62972,-4.08113]],[[39.62346,-4.08066],[39.62329,-4.08069],[39.62319,-4.0808],[39.62321,-4.08081],[39.62346,-4.08066]],[[39.60943,-4.08621],[39.60931,-4.08618],[39.60902,-4.08635],[39.60904,-4.08636],[39.60943,-4.08621]]]}},{"type":"Feature","properties":{"name":"Mvita","wards":5,"label_lng":39.65962,"label_lat":-4.05215},"geometry":{"type":"Polygon","coordinates":[[[39.64032,-4.03748],[39.6413,-4.03711],[39.64252,-4.03638],[39.6427,-4.03662],[39.64253,-4.03699],[39.64331,-4.03741],[39.64368,-4.03729],[39.64447,-4.03668],[39.64551,-4.03699],[39.64612,-4.03741],[39.64648,-4.03748],[39.64709,-4.03729],[39.6485,-4.0365],[39.64868,-4.03668],[39.64911,-4.03662],[39.64948,-4.03601],[39.6507,-4.03491],[39.65131,-4.03461],[39.6521,-4.03387],[39.6521,-4.0332],[39.65192,-4.0329],[39.65228,-4.03271],[39.65328,-4.03456],[39.65228,-4.03241],[39.65308,-4.03168],[39.65393,-4.0318],[39.6543,-4.0321],[39.65472,-4.03223],[39.65524,-4.03223],[39.65491,-4.03168],[39.65491,-4.03131],[39.65613,-4.02991],[39.65649,-4.02972],[39.65668,-4.02942],[39.65833,-4.02869],[39.65948,-4.02838],[39.66229,-4.02832],[39.66431,-4.02869],[39.66571,-4.0285],[39.6665,-4.02887],[39.66687,-4.02948],[39.66687,-4.02991],[39.66772,-4.0307],[39.66852,-4.03119],[39.66968,-4.0332],[39.6701,-4.03339],[39.67029,-4.0332],[39.6709,-4.0332],[39.67212,-4.03357],[39.67273,-4.03351],[39.67291,-4.0332],[39.67328,-4.0332],[39.67389,-4.0329],[39.67432,-4.03302],[39.67468,-4.03461],[39.6745,-4.03491],[39.6745,-4.03528],[39.67389,-4.03589],[39.67352,-4.03583],[39.67249,-4.03638],[39.67188,-4.0365],[39.67151,-4.0368],[39.67133,-4.03712],[39.67133,-4.03741],[39.67151,-4.03772],[39.6709,-4.03809],[39.67047,-4.03802],[39.67029,-4.03772],[39.67028,-4.03681],[39.6701,-4.0368],[39.66931,-4.03619],[39.66888,-4.03639],[39.66888,-4.03668],[39.66873,-4.03679],[39.66873,-4.03771],[39.66906,-4.03839],[39.66911,-4.03909],[39.66968,-4.03927],[39.67006,-4.03974],[39.67004,-4.04016],[39.67018,-4.04038],[39.67012,-4.04093],[39.67045,-4.04238],[39.67035,-4.04305],[39.66995,-4.04326],[39.66994,-4.04348],[39.67059,-4.0437],[39.67096,-4.04342],[39.67137,-4.0434],[39.67216,-4.04398],[39.67252,-4.04467],[39.67336,-4.04511],[39.67389,-4.04501],[39.67449,-4.04445],[39.67503,-4.04435],[39.67673,-4.04437],[39.67744,-4.04456],[39.67745,-4.04526],[39.67695,-4.04534],[39.67712,-4.04541],[39.67712,-4.04602],[39.67688,-4.04657],[39.67572,-4.04773],[39.6745,-4.04999],[39.67432,-4.05072],[39.67432,-4.05243],[39.67468,-4.0531],[39.67572,-4.05402],[39.67651,-4.05511],[39.67688,-4.05518],[39.67731,-4.0556],[39.67792,-4.05591],[39.67828,-4.0564],[39.67908,-4.05682],[39.67932,-4.05731],[39.67932,-4.0578],[39.67969,-4.05829],[39.67969,-4.05908],[39.67933,-4.05969],[39.67987,-4.06],[39.68073,-4.06012],[39.68109,-4.06073],[39.68152,-4.06201],[39.68231,-4.06299],[39.6825,-4.0636],[39.68213,-4.0647],[39.68213,-4.06512],[39.68188,-4.06544],[39.68231,-4.06659],[39.68268,-4.06812],[39.68268,-4.06879],[39.68188,-4.0694],[39.68011,-4.07019],[39.67908,-4.07031],[39.67853,-4.0708],[39.67688,-4.07123],[39.67633,-4.07111],[39.67609,-4.07147],[39.67468,-4.07178],[39.67291,-4.07312],[39.6725,-4.07318],[39.67249,-4.07361],[39.67212,-4.0741],[39.67133,-4.07458],[39.6709,-4.07532],[39.6701,-4.07593],[39.66809,-4.07629],[39.66748,-4.07611],[39.66528,-4.07617],[39.66388,-4.07599],[39.66388,-4.0755],[39.66421,-4.07524],[39.6637,-4.07538],[39.66333,-4.0752],[39.66132,-4.0722],[39.66132,-4.0719],[39.66229,-4.07098],[39.66272,-4.07031],[39.66272,-4.07001],[39.66309,-4.06927],[39.66309,-4.06818],[39.66229,-4.06653],[39.66228,-4.06531],[39.66193,-4.06519],[39.66132,-4.06531],[39.66028,-4.0661],[39.66028,-4.06653],[39.66052,-4.06707],[39.66089,-4.0672],[39.66089,-4.06763],[39.66132,-4.06848],[39.6615,-4.06952],[39.66168,-4.06982],[39.6615,-4.07001],[39.66028,-4.07031],[39.66028,-4.06954],[39.65991,-4.0697],[39.65948,-4.0697],[39.65912,-4.0694],[39.65912,-4.06873],[39.65869,-4.06787],[39.6579,-4.06702],[39.6571,-4.06659],[39.65668,-4.06671],[39.65668,-4.0672],[39.65631,-4.06708],[39.65631,-4.06628],[39.6571,-4.06597],[39.65709,-4.0647],[39.65649,-4.06458],[39.65552,-4.06403],[39.65509,-4.06409],[39.65472,-4.06458],[39.6543,-4.06451],[39.65393,-4.06378],[39.65393,-4.06281],[39.65411,-4.0625],[39.65411,-4.06219],[39.6535,-4.0611],[39.65308,-4.06073],[39.65228,-4.06061],[39.65228,-4.0603],[39.65269,-4.0598],[39.65228,-4.05951],[39.65167,-4.05969],[39.65112,-4.05951],[39.65088,-4.05908],[39.6499,-4.05847],[39.64929,-4.05829],[39.64807,-4.05823],[39.64728,-4.05792],[39.64709,-4.0575],[39.64709,-4.05701],[39.64752,-4.05597],[39.64752,-4.0545],[39.64728,-4.05402],[39.64728,-4.05292],[39.64709,-4.05261],[39.64709,-4.05188],[39.64691,-4.05121],[39.64673,-4.05103],[39.64673,-4.05048],[39.64648,-4.05011],[39.64648,-4.04962],[39.6463,-4.04938],[39.64612,-4.04822],[39.64587,-4.04779],[39.64429,-4.04669],[39.64392,-4.04602],[39.64392,-4.04572],[39.64368,-4.04547],[39.64368,-4.0451],[39.64349,-4.04468],[39.64227,-4.04242],[39.6413,-4.04199],[39.64111,-4.04163],[39.6411,-4.0411],[39.64069,-4.04132],[39.64069,-4.04089],[39.64111,-4.04107],[39.6413,-4.04077],[39.6413,-4.03913],[39.6405,-4.03839],[39.6411,-4.03821],[39.64093,-4.03779],[39.6405,-4.03778],[39.64032,-4.03748]],[[39.67624,-4.04525],[39.67611,-4.04519],[39.67596,-4.04525],[39.67598,-4.04527],[39.67624,-4.04525]],[[39.67566,-4.04537],[39.67524,-4.04562],[39.675,-4.04611],[39.67502,-4.04611],[39.67566,-4.04537]],[[39.67151,-4.05582],[39.67212,-4.05595],[39.67249,-4.05469],[39.6723,-4.05389],[39.67188,-4.05341],[39.67188,-4.05298],[39.67413,-4.04774],[39.67358,-4.04872],[39.67175,-4.05311],[39.67172,-4.05338],[39.67233,-4.05421],[39.67231,-4.05476],[39.67197,-4.05585],[39.67151,-4.05582]],[[39.66821,-4.03601],[39.6681,-4.03652],[39.66833,-4.03682],[39.66864,-4.03681],[39.66827,-4.03662],[39.66827,-4.03573],[39.66811,-4.03571],[39.66821,-4.03601]],[[39.66713,-4.03571],[39.66682,-4.03576],[39.66715,-4.03573],[39.66713,-4.03571]],[[39.66655,-4.03584],[39.66615,-4.03609],[39.66615,-4.03612],[39.66655,-4.03584]],[[39.66607,-4.03927],[39.66603,-4.03903],[39.66497,-4.03979],[39.66607,-4.03927]]]}},{"type":"Feature","properties":{"name":"Nyali","wards":5,"label_lng":39.70053,"label_lat":-4.03053},"geometry":{"type":"Polygon","coordinates":[[[39.67977,-4.03639],[39.68157,-4.03446],[39.68148,-4.03324],[39.68163,-4.0326],[39.68255,-4.03075],[39.68275,-4.02888],[39.68556,-4.02471],[39.68937,-4.01609],[39.6902,-4.0146],[39.69239,-4.01131],[39.69365,-4.00676],[39.69414,-4.00568],[39.69481,-4.00463],[39.69652,-4.00265],[39.69774,-4.00021],[39.69804,-3.99985],[39.70548,-3.99991],[39.7083,-4.00015],[39.7091,-4.00053],[39.70998,-4.00135],[39.71045,-4.00155],[39.71168,-4.00184],[39.71448,-4.00185],[39.71603,-4.00278],[39.71932,-4.00415],[39.72274,-4.00515],[39.72454,-4.00531],[39.7266,-4.00603],[39.72616,-4.00802],[39.72616,-4.01127],[39.72626,-4.0117],[39.72662,-4.01262],[39.72686,-4.01289],[39.72727,-4.01323],[39.7284,-4.01373],[39.73031,-4.01571],[39.73047,-4.01603],[39.73051,-4.01686],[39.73009,-4.01819],[39.72868,-4.01968],[39.72828,-4.02098],[39.72808,-4.02123],[39.72702,-4.0215],[39.72601,-4.02155],[39.72497,-4.02189],[39.72343,-4.02331],[39.72184,-4.02601],[39.71861,-4.03032],[39.71699,-4.0334],[39.714,-4.03829],[39.71174,-4.04121],[39.71111,-4.04303],[39.70934,-4.04598],[39.7086,-4.0467],[39.70736,-4.04756],[39.70637,-4.04864],[39.70511,-4.0509],[39.70466,-4.0522],[39.70373,-4.05362],[39.70287,-4.05527],[39.70227,-4.05592],[39.70175,-4.05617],[39.6999,-4.05795],[39.69889,-4.05836],[39.69697,-4.05971],[39.69388,-4.06102],[39.69269,-4.06136],[39.68895,-4.06131],[39.68825,-4.06118],[39.6873,-4.06079],[39.68642,-4.06072],[39.6855,-4.06113],[39.68509,-4.06151],[39.68482,-4.06151],[39.68396,-4.0607],[39.68274,-4.05858],[39.68264,-4.05791],[39.68322,-4.05662],[39.68313,-4.05549],[39.6825,-4.05453],[39.6805,-4.0532],[39.6805,-4.05272],[39.68119,-4.05218],[39.68139,-4.05187],[39.68142,-4.05151],[39.68105,-4.04849],[39.68026,-4.0474],[39.68024,-4.04648],[39.68074,-4.04546],[39.68147,-4.04541],[39.68201,-4.04383],[39.68192,-4.04223],[39.68115,-4.03942],[39.68064,-4.03807],[39.67977,-4.03639]],[[39.72001,-4.01562],[39.72021,-4.0154],[39.72032,-4.01511],[39.72029,-4.01511],[39.72001,-4.01562]],[[39.70248,-4.04004],[39.70297,-4.03967],[39.70245,-4.04003],[39.70248,-4.04004]],[[39.69662,-4.02335],[39.69437,-4.02471],[39.69334,-4.02545],[39.69336,-4.02546],[39.69662,-4.02335]],[[39.69196,-4.03303],[39.692,-4.03305],[39.69199,-4.03302],[39.69196,-4.03303]],[[39.69151,-4.03304],[39.69138,-4.033],[39.69112,-4.03309],[39.69114,-4.03311],[39.69151,-4.03304]],[[39.68612,-4.03297],[39.6859,-4.03292],[39.68612,-4.033],[39.68612,-4.03297]]]}}]}